station_id,station_name,country,region,latitude,longitude,elevation,is_coastal,is_active
DZ-NOR-0000,Station DZ-NOR-0000,DZ,North,-11.1581,40.7989,274.8,False,True
BW-SOU-0001,Station BW-SOU-0001,BW,South,-25.8784,47.0614,6.2,False,True
GH-WES-0002,Station GH-WES-0002,GH,West,-23.8714,-7.0909,1930.3,True,True
LY-NOR-0003,Station LY-NOR-0003,LY,North,5.8686,2.9531,1993.7,False,True
ZA-SOU-0004,Station ZA-SOU-0004,ZA,South,-26.3186,21.79,767.7,True,True
CI-WES-0005,Station CI-WES-0005,CI,West,-13.6302,-8.9261,2451.2,False,True
BW-SOU-0006,Station BW-SOU-0006,BW,South,11.4253,-12.7365,949.5,False,True
SO-EAS-0007,Station SO-EAS-0007,SO,East,-5.2472,25.3638,2650.2,False,True
KE-EAS-0008,Station KE-EAS-0008,KE,East,5.0258,11.0537,1978.6,True,True
NA-SOU-0009,Station NA-SOU-0009,NA,South,23.4725,-16.8727,656.7,True,True
LY-NOR-0010,Station LY-NOR-0010,LY,North,-12.4197,-0.1503,596.4,False,True
ML-WES-0011,Station ML-WES-0011,ML,West,-0.9303,9.2366,1942.1,False,True
LY-NOR-0012,Station LY-NOR-0012,LY,North,-19.4478,-7.4755,2092.2,False,True
GA-CEN-0013,Station GA-CEN-0013,GA,Central,-18.9176,7.473,2442.2,True,True
ZA-SOU-0014,Station ZA-SOU-0014,ZA,South,-0.9626,11.5121,2955.5,False,True
CI-WES-0015,Station CI-WES-0015,CI,West,-33.169,14.9341,1217.1,False,True
TN-NOR-0016,Station TN-NOR-0016,TN,North,35.0043,37.3011,2684.2,False,True
EG-NOR-0017,Station EG-NOR-0017,EG,North,-6.7929,48.8469,2696.2,True,True
TZ-EAS-0018,Station TZ-EAS-0018,TZ,East,35.4911,-11.9772,2838.3,True,True
SN-WES-0019,Station SN-WES-0019,SN,West,-19.9733,-6.0164,1963.8,False,True
BW-SOU-0020,Station BW-SOU-0020,BW,South,18.6254,30.5294,440.9,False,True
SO-EAS-0021,Station SO-EAS-0021,SO,East,-19.4214,-10.0052,439.0,False,True
CM-CEN-0022,Station CM-CEN-0022,CM,Central,14.3948,-5.5296,2738.7,True,True
ZW-SOU-0023,Station ZW-SOU-0023,ZW,South,-24.3956,14.5786,1491.1,True,True
ET-EAS-0024,Station ET-EAS-0024,ET,East,-21.1566,16.7728,1232.6,True,True
GA-CEN-0025,Station GA-CEN-0025,GA,Central,19.0494,25.7965,916.4,False,True
GA-CEN-0026,Station GA-CEN-0026,GA,Central,13.1894,-1.0002,841.8,True,True
LY-NOR-0027,Station LY-NOR-0027,LY,North,-0.7165,-12.9217,1655.1,True,True
TN-NOR-0028,Station TN-NOR-0028,TN,North,-20.543,40.4767,1848.8,False,True
CD-CEN-0029,Station CD-CEN-0029,CD,Central,14.3088,19.7676,1918.9,True,True
UG-EAS-0030,Station UG-EAS-0030,UG,East,-22.707,21.5492,2068.8,True,True
ZW-SOU-0031,Station ZW-SOU-0031,ZW,South,30.1057,47.3393,2571.6,False,True
EG-NOR-0032,Station EG-NOR-0032,EG,North,27.069,30.1917,865.3,True,True
GH-WES-0033,Station GH-WES-0033,GH,West,-30.4959,1.3456,1529.6,True,True
TN-NOR-0034,Station TN-NOR-0034,TN,North,25.5549,-6.9545,434.0,True,True
NA-SOU-0035,Station NA-SOU-0035,NA,South,-10.4135,10.5163,2247.4,False,True
CM-CEN-0036,Station CM-CEN-0036,CM,Central,-29.1734,-7.7569,371.7,False,True
CM-CEN-0037,Station CM-CEN-0037,CM,Central,-19.6318,-12.9088,581.5,True,True
UG-EAS-0038,Station UG-EAS-0038,UG,East,34.1827,29.9936,2056.4,False,True
ZA-SOU-0039,Station ZA-SOU-0039,ZA,South,14.3959,39.7774,1366.5,False,True
ET-EAS-0040,Station ET-EAS-0040,ET,East,-13.5437,4.5701,194.2,True,True
SO-EAS-0041,Station SO-EAS-0041,SO,East,-25.3496,26.7446,2138.3,True,True
UG-EAS-0042,Station UG-EAS-0042,UG,East,15.4981,-8.4234,2952.1,False,True
ML-WES-0043,Station ML-WES-0043,ML,West,34.8008,36.1596,2651.5,True,True
ET-EAS-0044,Station ET-EAS-0044,ET,East,36.1091,8.0245,412.1,True,True
SO-EAS-0045,Station SO-EAS-0045,SO,East,31.9818,-1.9992,62.6,False,True
EG-NOR-0046,Station EG-NOR-0046,EG,North,31.4076,6.753,350.4,False,True
KE-EAS-0047,Station KE-EAS-0047,KE,East,-9.0249,-2.4241,1407.4,False,True
UG-EAS-0048,Station UG-EAS-0048,UG,East,-20.1083,25.8833,2709.5,False,True
CI-WES-0049,Station CI-WES-0049,CI,West,11.1589,1.4575,1067.6,False,True
CM-CEN-0050,Station CM-CEN-0050,CM,Central,2.6576,23.9858,2339.5,True,True
CF-CEN-0051,Station CF-CEN-0051,CF,Central,-22.504,11.1133,2328.3,False,True
TZ-EAS-0052,Station TZ-EAS-0052,TZ,East,-25.1545,49.311,994.0,False,True
CM-CEN-0053,Station CM-CEN-0053,CM,Central,34.3806,5.9726,1385.0,False,True
KE-EAS-0054,Station KE-EAS-0054,KE,East,-7.3474,44.0557,980.3,True,True
KE-EAS-0055,Station KE-EAS-0055,KE,East,30.1725,30.5245,2889.7,False,True
ML-WES-0056,Station ML-WES-0056,ML,West,-2.5952,22.6876,2916.3,False,True
LY-NOR-0057,Station LY-NOR-0057,LY,North,34.5791,-7.1463,2097.7,False,True
GA-CEN-0058,Station GA-CEN-0058,GA,Central,8.6671,-8.5931,441.7,False,True
BW-SOU-0059,Station BW-SOU-0059,BW,South,-20.3675,-9.6633,2375.8,False,True
NG-WES-0060,Station NG-WES-0060,NG,West,-4.5805,30.0372,2280.1,False,True
ZA-SOU-0061,Station ZA-SOU-0061,ZA,South,32.3635,-7.1436,2254.9,False,True
KE-EAS-0062,Station KE-EAS-0062,KE,East,17.5438,45.8157,1177.2,True,True
LY-NOR-0063,Station LY-NOR-0063,LY,North,-22.5832,-5.2486,2331.9,True,True
DZ-NOR-0064,Station DZ-NOR-0064,DZ,North,29.3254,-3.8696,1149.4,False,True
DZ-NOR-0065,Station DZ-NOR-0065,DZ,North,-24.6508,2.9568,977.6,False,True
BW-SOU-0066,Station BW-SOU-0066,BW,South,14.0945,20.6325,823.8,True,True
CF-CEN-0067,Station CF-CEN-0067,CF,Central,22.5926,0.0572,2770.6,True,True
NG-WES-0068,Station NG-WES-0068,NG,West,-33.5232,31.0116,2411.3,True,True
UG-EAS-0069,Station UG-EAS-0069,UG,East,-24.0286,19.436,2528.6,False,True
GH-WES-0070,Station GH-WES-0070,GH,West,31.5521,37.4126,1689.2,False,True
SO-EAS-0071,Station SO-EAS-0071,SO,East,-17.6236,26.132,2341.0,True,True
MZ-SOU-0072,Station MZ-SOU-0072,MZ,South,21.7088,-0.4433,2305.0,True,True
CG-CEN-0073,Station CG-CEN-0073,CG,Central,-13.8103,42.093,2150.2,False,True
NA-SOU-0074,Station NA-SOU-0074,NA,South,29.7712,3.8299,518.3,True,True
CG-CEN-0075,Station CG-CEN-0075,CG,Central,11.952,49.5143,519.2,False,True
ET-EAS-0076,Station ET-EAS-0076,ET,East,-18.3477,23.8638,1318.8,True,True
EG-NOR-0077,Station EG-NOR-0077,EG,North,10.5774,7.7132,2344.7,False,True
ZA-SOU-0078,Station ZA-SOU-0078,ZA,South,-9.1412,7.9869,882.7,True,True
BW-SOU-0079,Station BW-SOU-0079,BW,South,14.0993,9.611,2330.3,False,True
GH-WES-0080,Station GH-WES-0080,GH,West,-28.4448,2.8872,2992.0,False,True
MA-NOR-0081,Station MA-NOR-0081,MA,North,-11.5844,-6.7078,1513.5,False,True
LY-NOR-0082,Station LY-NOR-0082,LY,North,-11.2885,-5.2856,2946.5,True,True
ZW-SOU-0083,Station ZW-SOU-0083,ZW,South,36.747,-10.9906,1232.5,True,True
ZW-SOU-0084,Station ZW-SOU-0084,ZW,South,-2.0729,3.3619,420.8,False,True
CF-CEN-0085,Station CF-CEN-0085,CF,Central,11.4819,-6.9311,879.1,True,True
CG-CEN-0086,Station CG-CEN-0086,CG,Central,24.5006,-6.7173,813.5,True,True
CD-CEN-0087,Station CD-CEN-0087,CD,Central,28.1453,9.403,510.9,True,True
CM-CEN-0088,Station CM-CEN-0088,CM,Central,-30.8657,5.8909,938.7,True,True
TZ-EAS-0089,Station TZ-EAS-0089,TZ,East,20.5076,40.5771,1610.8,True,True
EG-NOR-0090,Station EG-NOR-0090,EG,North,-17.3157,27.179,564.8,False,True
CD-CEN-0091,Station CD-CEN-0091,CD,Central,1.343,2.4347,1311.1,True,True
NG-WES-0092,Station NG-WES-0092,NG,West,2.6921,38.7618,2198.4,False,True
CG-CEN-0093,Station CG-CEN-0093,CG,Central,29.1347,-12.4084,2906.0,True,True
LY-NOR-0094,Station LY-NOR-0094,LY,North,35.7961,9.7799,2430.0,False,True
NA-SOU-0095,Station NA-SOU-0095,NA,South,-32.3391,-4.4116,1805.4,False,True
ZW-SOU-0096,Station ZW-SOU-0096,ZW,South,-21.3946,4.0787,2714.2,True,True
BW-SOU-0097,Station BW-SOU-0097,BW,South,-6.1889,14.1914,1891.5,False,True
ZW-SOU-0098,Station ZW-SOU-0098,ZW,South,-7.411,15.1813,492.3,True,True
UG-EAS-0099,Station UG-EAS-0099,UG,East,-34.3016,-14.644,1148.7,False,True
CG-CEN-0100,Station CG-CEN-0100,CG,Central,9.2959,32.0211,89.9,False,True
CI-WES-0101,Station CI-WES-0101,CI,West,-19.9175,50.8714,2483.4,False,True
NA-SOU-0102,Station NA-SOU-0102,NA,South,-32.1315,16.7433,1428.1,False,True
ET-EAS-0103,Station ET-EAS-0103,ET,East,15.6978,13.2268,1524.6,False,True
TN-NOR-0104,Station TN-NOR-0104,TN,North,29.8006,4.5862,2790.8,False,True
MA-NOR-0105,Station MA-NOR-0105,MA,North,20.5276,-13.1133,1206.1,False,True
EG-NOR-0106,Station EG-NOR-0106,EG,North,-15.7836,14.6972,1069.0,True,True
MA-NOR-0107,Station MA-NOR-0107,MA,North,29.3266,8.3534,485.2,False,True
LY-NOR-0108,Station LY-NOR-0108,LY,North,-21.061,49.8324,2021.5,False,True
CI-WES-0109,Station CI-WES-0109,CI,West,2.8496,22.1584,2629.3,False,True
SN-WES-0110,Station SN-WES-0110,SN,West,-7.5204,-11.7463,2934.7,True,True
GA-CEN-0111,Station GA-CEN-0111,GA,Central,30.6044,44.5142,1170.0,True,True
GH-WES-0112,Station GH-WES-0112,GH,West,4.0816,49.287,316.0,True,True
EG-NOR-0113,Station EG-NOR-0113,EG,North,-10.5554,8.3396,1410.9,True,True
SN-WES-0114,Station SN-WES-0114,SN,West,6.2707,7.0614,2847.0,True,True
NG-WES-0115,Station NG-WES-0115,NG,West,-6.0206,10.4442,1251.2,True,True
LY-NOR-0116,Station LY-NOR-0116,LY,North,-1.2443,33.4747,225.0,False,True
ET-EAS-0117,Station ET-EAS-0117,ET,East,19.7455,25.6675,1737.5,False,True
SN-WES-0118,Station SN-WES-0118,SN,West,28.9101,24.9949,1167.8,False,True
CI-WES-0119,Station CI-WES-0119,CI,West,26.925,47.6904,2188.2,False,True
SN-WES-0120,Station SN-WES-0120,SN,West,34.232,-4.035,69.7,False,True
UG-EAS-0121,Station UG-EAS-0121,UG,East,23.5342,6.1352,6.6,True,True
TN-NOR-0122,Station TN-NOR-0122,TN,North,-8.9368,28.8329,1239.0,False,True
CF-CEN-0123,Station CF-CEN-0123,CF,Central,12.7205,7.1198,1043.3,True,True
BW-SOU-0124,Station BW-SOU-0124,BW,South,-21.6197,40.9885,80.1,False,True
CF-CEN-0125,Station CF-CEN-0125,CF,Central,4.163,-13.3965,665.6,True,True
CG-CEN-0126,Station CG-CEN-0126,CG,Central,27.1235,34.9984,2115.5,False,True
TZ-EAS-0127,Station TZ-EAS-0127,TZ,East,-25.4981,41.7481,134.4,True,True
EG-NOR-0128,Station EG-NOR-0128,EG,North,17.4529,25.1652,1972.8,True,True
ML-WES-0129,Station ML-WES-0129,ML,West,-1.5335,0.2459,2623.7,True,True
MA-NOR-0130,Station MA-NOR-0130,MA,North,-13.5,-16.7909,1214.7,False,True
NA-SOU-0131,Station NA-SOU-0131,NA,South,12.6987,32.4286,957.9,False,True
CG-CEN-0132,Station CG-CEN-0132,CG,Central,20.8804,30.0016,2663.4,False,True
TZ-EAS-0133,Station TZ-EAS-0133,TZ,East,-8.9683,28.6261,804.4,True,True
MA-NOR-0134,Station MA-NOR-0134,MA,North,-26.8927,-4.648,2218.1,True,True
SN-WES-0135,Station SN-WES-0135,SN,West,33.8576,9.8889,461.7,False,True
SN-WES-0136,Station SN-WES-0136,SN,West,-10.9831,40.0788,793.3,False,True
CM-CEN-0137,Station CM-CEN-0137,CM,Central,-24.5862,19.4984,1949.5,True,True
ZA-SOU-0138,Station ZA-SOU-0138,ZA,South,9.2177,42.9222,567.8,True,True
BW-SOU-0139,Station BW-SOU-0139,BW,South,-25.5513,23.4469,1825.9,True,True
SN-WES-0140,Station SN-WES-0140,SN,West,28.0626,-5.7428,2127.5,False,True
CM-CEN-0141,Station CM-CEN-0141,CM,Central,-28.5499,-1.4543,1520.1,True,True
LY-NOR-0142,Station LY-NOR-0142,LY,North,-4.0422,46.6159,1058.1,True,True
BW-SOU-0143,Station BW-SOU-0143,BW,South,-18.7943,22.4957,2179.9,False,True
CD-CEN-0144,Station CD-CEN-0144,CD,Central,-9.4496,37.6727,1201.1,True,True
SO-EAS-0145,Station SO-EAS-0145,SO,East,14.0911,14.6734,816.0,False,True
DZ-NOR-0146,Station DZ-NOR-0146,DZ,North,-21.5545,20.491,905.8,True,True
ML-WES-0147,Station ML-WES-0147,ML,West,28.6003,33.749,1309.8,True,True
BW-SOU-0148,Station BW-SOU-0148,BW,South,-15.1586,-1.0812,2981.4,True,True
SN-WES-0149,Station SN-WES-0149,SN,West,-25.4798,-5.1583,784.0,False,True
EG-NOR-0150,Station EG-NOR-0150,EG,North,-24.8508,30.3152,2747.4,True,True
ET-EAS-0151,Station ET-EAS-0151,ET,East,15.1777,37.4137,1935.3,True,True
TN-NOR-0152,Station TN-NOR-0152,TN,North,6.892,14.617,1599.8,False,True
ET-EAS-0153,Station ET-EAS-0153,ET,East,-18.2759,-3.8767,945.8,True,True
CD-CEN-0154,Station CD-CEN-0154,CD,Central,-8.3302,27.8596,1063.1,True,True
NA-SOU-0155,Station NA-SOU-0155,NA,South,0.8984,39.4421,1917.5,False,True
ZW-SOU-0156,Station ZW-SOU-0156,ZW,South,34.7004,8.34,32.5,True,True
MA-NOR-0157,Station MA-NOR-0157,MA,North,17.849,32.2817,729.0,True,True
UG-EAS-0158,Station UG-EAS-0158,UG,East,-6.4496,41.2858,2505.4,True,True
TZ-EAS-0159,Station TZ-EAS-0159,TZ,East,7.2122,41.8361,1738.0,True,True
NG-WES-0160,Station NG-WES-0160,NG,West,-6.8776,25.9887,663.2,True,True
SO-EAS-0161,Station SO-EAS-0161,SO,East,-20.9818,12.8789,2408.3,True,True
KE-EAS-0162,Station KE-EAS-0162,KE,East,-23.0061,-15.7065,419.2,True,True
GH-WES-0163,Station GH-WES-0163,GH,West,-8.7952,-12.5081,2139.5,False,True
CM-CEN-0164,Station CM-CEN-0164,CM,Central,20.3227,0.14,2981.3,True,True
LY-NOR-0165,Station LY-NOR-0165,LY,North,17.4227,6.4943,503.1,True,True
ML-WES-0166,Station ML-WES-0166,ML,West,33.5766,38.2978,1042.3,True,True
TN-NOR-0167,Station TN-NOR-0167,TN,North,25.5631,-10.0314,999.2,False,True
NA-SOU-0168,Station NA-SOU-0168,NA,South,10.8361,-4.5581,1662.4,True,True
CI-WES-0169,Station CI-WES-0169,CI,West,11.9643,9.1353,1272.3,False,True
LY-NOR-0170,Station LY-NOR-0170,LY,North,6.9115,19.9037,2131.6,True,True
GH-WES-0171,Station GH-WES-0171,GH,West,-32.4146,-6.2648,257.8,True,True
LY-NOR-0172,Station LY-NOR-0172,LY,North,2.5422,-8.9523,2948.3,True,True
GA-CEN-0173,Station GA-CEN-0173,GA,Central,-27.4524,36.8278,1806.9,True,True
BW-SOU-0174,Station BW-SOU-0174,BW,South,5.1454,47.3582,183.1,True,True
CD-CEN-0175,Station CD-CEN-0175,CD,Central,32.5162,12.1719,1511.3,False,True
ML-WES-0176,Station ML-WES-0176,ML,West,18.5567,-12.9211,1906.2,False,True
SO-EAS-0177,Station SO-EAS-0177,SO,East,-2.0568,10.3988,1190.4,True,True
BW-SOU-0178,Station BW-SOU-0178,BW,South,-19.4226,-12.2509,2451.2,True,True
ZW-SOU-0179,Station ZW-SOU-0179,ZW,South,-13.0054,25.0355,942.3,False,True
NG-WES-0180,Station NG-WES-0180,NG,West,-16.545,14.1085,2237.9,True,True
ET-EAS-0181,Station ET-EAS-0181,ET,East,-32.3271,16.9996,2183.6,True,True
SO-EAS-0182,Station SO-EAS-0182,SO,East,-9.5115,17.0309,2229.2,False,True
KE-EAS-0183,Station KE-EAS-0183,KE,East,23.1468,20.0725,2017.1,True,True
GH-WES-0184,Station GH-WES-0184,GH,West,-4.1483,11.9953,2670.3,True,True
EG-NOR-0185,Station EG-NOR-0185,EG,North,-12.1087,28.0875,692.3,False,True
NA-SOU-0186,Station NA-SOU-0186,NA,South,-13.3758,13.6619,1957.5,True,True
DZ-NOR-0187,Station DZ-NOR-0187,DZ,North,-15.0835,2.6756,1577.9,False,True
NG-WES-0188,Station NG-WES-0188,NG,West,33.7638,11.3923,2540.1,True,True
LY-NOR-0189,Station LY-NOR-0189,LY,North,-9.8656,30.0605,446.1,True,True
EG-NOR-0190,Station EG-NOR-0190,EG,North,-6.1572,40.9943,2398.7,False,True
ZW-SOU-0191,Station ZW-SOU-0191,ZW,South,36.5615,15.9609,99.4,False,True
TN-NOR-0192,Station TN-NOR-0192,TN,North,12.9576,40.3517,2923.9,True,True
TZ-EAS-0193,Station TZ-EAS-0193,TZ,East,-1.5058,35.782,1866.9,False,True
CM-CEN-0194,Station CM-CEN-0194,CM,Central,36.9752,3.0235,461.8,False,True
TZ-EAS-0195,Station TZ-EAS-0195,TZ,East,27.1144,33.7712,2611.4,False,True
GH-WES-0196,Station GH-WES-0196,GH,West,-33.0858,-4.4539,715.8,False,True
MZ-SOU-0197,Station MZ-SOU-0197,MZ,South,-10.9942,25.11,770.2,True,True
GA-CEN-0198,Station GA-CEN-0198,GA,Central,31.7007,6.4131,1168.8,False,True
NG-WES-0199,Station NG-WES-0199,NG,West,-20.5207,24.6226,1891.3,True,True
NA-SOU-0200,Station NA-SOU-0200,NA,South,-1.8394,-7.4035,1062.7,True,True
ET-EAS-0201,Station ET-EAS-0201,ET,East,21.8323,14.7684,1163.5,False,True
NA-SOU-0202,Station NA-SOU-0202,NA,South,-10.4889,33.1151,1627.8,True,True
CM-CEN-0203,Station CM-CEN-0203,CM,Central,-1.1555,28.2369,133.5,True,True
SO-EAS-0204,Station SO-EAS-0204,SO,East,13.8332,37.0835,512.8,True,True
GA-CEN-0205,Station GA-CEN-0205,GA,Central,12.8439,-3.6472,1712.7,True,True
NA-SOU-0206,Station NA-SOU-0206,NA,South,32.9223,-8.7792,2356.1,False,True
ET-EAS-0207,Station ET-EAS-0207,ET,East,-11.2594,10.7065,1392.8,False,True
NG-WES-0208,Station NG-WES-0208,NG,West,-23.5077,48.8059,471.7,False,True
MZ-SOU-0209,Station MZ-SOU-0209,MZ,South,19.6964,-13.4373,1377.0,False,True
CD-CEN-0210,Station CD-CEN-0210,CD,Central,28.6373,1.3153,2924.4,False,True
ET-EAS-0211,Station ET-EAS-0211,ET,East,10.2014,4.5191,75.5,False,True
DZ-NOR-0212,Station DZ-NOR-0212,DZ,North,21.3109,-8.0045,319.6,False,True
CI-WES-0213,Station CI-WES-0213,CI,West,25.9313,32.7093,2564.7,True,True
ML-WES-0214,Station ML-WES-0214,ML,West,-9.8391,47.2886,1233.1,True,True
CM-CEN-0215,Station CM-CEN-0215,CM,Central,35.4171,45.672,1928.3,False,True
KE-EAS-0216,Station KE-EAS-0216,KE,East,19.1798,-12.3444,2106.2,False,True
BW-SOU-0217,Station BW-SOU-0217,BW,South,-8.1218,-10.5023,1180.0,True,True
TN-NOR-0218,Station TN-NOR-0218,TN,North,27.6376,41.2079,846.5,False,True
EG-NOR-0219,Station EG-NOR-0219,EG,North,10.2314,36.5104,711.2,False,True
BW-SOU-0220,Station BW-SOU-0220,BW,South,-23.6211,3.3128,915.6,True,True
ZA-SOU-0221,Station ZA-SOU-0221,ZA,South,-17.2759,-5.623,1432.5,False,True
NG-WES-0222,Station NG-WES-0222,NG,West,30.1813,50.3101,2739.5,True,True
NG-WES-0223,Station NG-WES-0223,NG,West,-6.5766,47.1446,1016.6,True,True
SO-EAS-0224,Station SO-EAS-0224,SO,East,25.0352,-16.6322,262.3,True,True
CF-CEN-0225,Station CF-CEN-0225,CF,Central,-19.231,-12.5438,2274.7,True,True
CI-WES-0226,Station CI-WES-0226,CI,West,31.6549,19.9205,82.4,False,True
ML-WES-0227,Station ML-WES-0227,ML,West,25.594,-8.706,675.3,False,True
NA-SOU-0228,Station NA-SOU-0228,NA,South,-13.6582,-12.1335,503.7,True,True
LY-NOR-0229,Station LY-NOR-0229,LY,North,5.1777,-11.9726,767.6,True,True
UG-EAS-0230,Station UG-EAS-0230,UG,East,13.113,-10.3201,892.0,True,True
DZ-NOR-0231,Station DZ-NOR-0231,DZ,North,7.0166,42.7467,411.1,True,True
ML-WES-0232,Station ML-WES-0232,ML,West,-0.9084,-10.844,1821.9,True,True
KE-EAS-0233,Station KE-EAS-0233,KE,East,36.5253,45.3331,1378.4,False,True
EG-NOR-0234,Station EG-NOR-0234,EG,North,22.3006,27.8072,2458.4,True,True
NA-SOU-0235,Station NA-SOU-0235,NA,South,-20.7683,38.6001,1521.2,True,True
MA-NOR-0236,Station MA-NOR-0236,MA,North,12.0375,-16.3219,768.3,False,True
EG-NOR-0237,Station EG-NOR-0237,EG,North,0.3103,27.427,286.4,True,True
ET-EAS-0238,Station ET-EAS-0238,ET,East,10.5505,46.0925,1282.8,True,True
ET-EAS-0239,Station ET-EAS-0239,ET,East,-22.1257,34.3811,228.8,True,True
ML-WES-0240,Station ML-WES-0240,ML,West,-12.7351,23.1654,2915.2,False,True
CF-CEN-0241,Station CF-CEN-0241,CF,Central,-20.0345,2.7024,2511.5,False,True
CG-CEN-0242,Station CG-CEN-0242,CG,Central,12.8727,4.8774,366.9,False,True
MA-NOR-0243,Station MA-NOR-0243,MA,North,6.4203,-12.6025,1533.3,False,True
CD-CEN-0244,Station CD-CEN-0244,CD,Central,19.2171,-16.0906,2141.3,True,True
MZ-SOU-0245,Station MZ-SOU-0245,MZ,South,-13.1069,41.4147,2967.4,True,True
DZ-NOR-0246,Station DZ-NOR-0246,DZ,North,31.2557,-4.5976,2366.7,False,True
TN-NOR-0247,Station TN-NOR-0247,TN,North,17.4862,50.8642,221.6,True,True
UG-EAS-0248,Station UG-EAS-0248,UG,East,-29.952,24.5368,2050.8,True,True
LY-NOR-0249,Station LY-NOR-0249,LY,North,-9.2541,-5.4096,2915.2,False,True
UG-EAS-0250,Station UG-EAS-0250,UG,East,-22.8001,-15.1617,2660.1,False,True
NA-SOU-0251,Station NA-SOU-0251,NA,South,-6.9626,40.0632,1018.8,True,True
CI-WES-0252,Station CI-WES-0252,CI,West,-32.5121,-16.9034,1739.3,False,True
LY-NOR-0253,Station LY-NOR-0253,LY,North,31.327,-12.7898,1146.3,True,True
TZ-EAS-0254,Station TZ-EAS-0254,TZ,East,4.3783,38.6551,432.1,False,True
NG-WES-0255,Station NG-WES-0255,NG,West,-20.7753,3.7286,865.1,False,True
CF-CEN-0256,Station CF-CEN-0256,CF,Central,9.5628,16.5497,1564.0,True,True
ZA-SOU-0257,Station ZA-SOU-0257,ZA,South,16.3502,46.0975,407.7,False,True
UG-EAS-0258,Station UG-EAS-0258,UG,East,2.066,9.7726,2332.1,True,True
UG-EAS-0259,Station UG-EAS-0259,UG,East,18.0721,34.6052,308.3,True,True
NG-WES-0260,Station NG-WES-0260,NG,West,2.2192,8.9261,1437.7,False,True
CF-CEN-0261,Station CF-CEN-0261,CF,Central,-27.8557,29.2525,2312.7,True,True
LY-NOR-0262,Station LY-NOR-0262,LY,North,-30.1767,8.0275,1352.2,False,True
ML-WES-0263,Station ML-WES-0263,ML,West,23.3018,20.3823,2099.6,False,True
ZA-SOU-0264,Station ZA-SOU-0264,ZA,South,-32.659,31.8156,1171.8,True,True
CD-CEN-0265,Station CD-CEN-0265,CD,Central,-31.2904,8.9309,509.5,False,True
LY-NOR-0266,Station LY-NOR-0266,LY,North,11.0413,23.6995,1028.0,True,True
NG-WES-0267,Station NG-WES-0267,NG,West,22.9044,17.9965,2720.2,True,True
SN-WES-0268,Station SN-WES-0268,SN,West,20.3252,-2.5063,944.0,False,True
ET-EAS-0269,Station ET-EAS-0269,ET,East,-0.2076,20.8191,1085.7,True,True
NG-WES-0270,Station NG-WES-0270,NG,West,-7.3726,23.9827,2528.0,False,True
SO-EAS-0271,Station SO-EAS-0271,SO,East,22.674,-7.8039,810.7,False,True
SO-EAS-0272,Station SO-EAS-0272,SO,East,11.1478,2.8712,2745.1,False,True
DZ-NOR-0273,Station DZ-NOR-0273,DZ,North,-17.8375,2.64,2321.9,True,True
ET-EAS-0274,Station ET-EAS-0274,ET,East,31.7152,7.3324,1622.9,True,True
LY-NOR-0275,Station LY-NOR-0275,LY,North,35.163,1.6794,1151.0,True,True
CI-WES-0276,Station CI-WES-0276,CI,West,-6.4665,-7.0323,2409.5,False,True
UG-EAS-0277,Station UG-EAS-0277,UG,East,7.0385,-3.0056,952.2,False,True
MA-NOR-0278,Station MA-NOR-0278,MA,North,-29.5276,15.4552,1679.0,False,True
MA-NOR-0279,Station MA-NOR-0279,MA,North,3.393,-15.6205,2970.1,False,True
GA-CEN-0280,Station GA-CEN-0280,GA,Central,15.3695,-8.0943,781.3,False,True
MZ-SOU-0281,Station MZ-SOU-0281,MZ,South,22.5563,8.1874,956.9,True,True
TZ-EAS-0282,Station TZ-EAS-0282,TZ,East,10.4772,13.6341,894.7,True,True
MA-NOR-0283,Station MA-NOR-0283,MA,North,-18.1288,-15.2555,1847.2,False,True
ET-EAS-0284,Station ET-EAS-0284,ET,East,15.675,34.3944,1555.4,False,True
ZA-SOU-0285,Station ZA-SOU-0285,ZA,South,32.4252,32.9882,2962.7,True,True
CM-CEN-0286,Station CM-CEN-0286,CM,Central,26.9782,11.4918,1288.1,False,True
TN-NOR-0287,Station TN-NOR-0287,TN,North,18.1644,1.5629,1046.2,True,True
ZA-SOU-0288,Station ZA-SOU-0288,ZA,South,12.8939,46.2291,898.3,False,True
GH-WES-0289,Station GH-WES-0289,GH,West,16.114,5.5786,2987.7,True,True
NG-WES-0290,Station NG-WES-0290,NG,West,4.2295,22.7234,1438.2,False,True
CM-CEN-0291,Station CM-CEN-0291,CM,Central,-10.5727,41.6109,838.1,False,True
CG-CEN-0292,Station CG-CEN-0292,CG,Central,34.2301,48.7391,522.4,False,True
NG-WES-0293,Station NG-WES-0293,NG,West,-23.8696,43.4843,2086.3,False,True
TN-NOR-0294,Station TN-NOR-0294,TN,North,-1.163,10.1684,1134.0,True,True
DZ-NOR-0295,Station DZ-NOR-0295,DZ,North,31.0548,-7.5144,2023.6,True,True
CF-CEN-0296,Station CF-CEN-0296,CF,Central,-6.6452,-8.4929,187.4,False,True
ET-EAS-0297,Station ET-EAS-0297,ET,East,-14.964,48.0749,2253.2,True,True
ET-EAS-0298,Station ET-EAS-0298,ET,East,16.2325,38.4537,1808.6,False,True
ET-EAS-0299,Station ET-EAS-0299,ET,East,29.5029,37.6866,2433.4,True,True
EG-NOR-0300,Station EG-NOR-0300,EG,North,29.1119,1.1765,25.9,False,True
KE-EAS-0301,Station KE-EAS-0301,KE,East,-23.6198,-11.8557,2851.1,False,True
KE-EAS-0302,Station KE-EAS-0302,KE,East,-6.3614,23.3449,1741.0,True,True
EG-NOR-0303,Station EG-NOR-0303,EG,North,-25.5798,-11.8992,1838.7,True,True
ZW-SOU-0304,Station ZW-SOU-0304,ZW,South,-2.4265,39.2816,2570.7,False,True
MA-NOR-0305,Station MA-NOR-0305,MA,North,25.1187,-6.9286,2872.6,False,True
SN-WES-0306,Station SN-WES-0306,SN,West,6.4049,29.1178,2158.2,False,True
TZ-EAS-0307,Station TZ-EAS-0307,TZ,East,-12.9033,-8.3682,745.6,False,True
GH-WES-0308,Station GH-WES-0308,GH,West,1.6613,17.2978,1794.1,True,True
GH-WES-0309,Station GH-WES-0309,GH,West,26.5907,43.2549,1497.4,False,True
LY-NOR-0310,Station LY-NOR-0310,LY,North,25.4886,43.7695,526.2,True,True
ZA-SOU-0311,Station ZA-SOU-0311,ZA,South,-30.7901,-10.3112,1215.1,True,True
EG-NOR-0312,Station EG-NOR-0312,EG,North,36.2555,47.9988,112.9,True,True
KE-EAS-0313,Station KE-EAS-0313,KE,East,32.7949,39.7217,6.2,True,True
ET-EAS-0314,Station ET-EAS-0314,ET,East,7.1816,21.83,2414.0,False,True
ZW-SOU-0315,Station ZW-SOU-0315,ZW,South,2.3773,-0.3463,2953.2,True,True
ET-EAS-0316,Station ET-EAS-0316,ET,East,11.1926,4.5789,1349.8,True,True
TZ-EAS-0317,Station TZ-EAS-0317,TZ,East,-15.2625,31.8276,1869.1,True,True
TZ-EAS-0318,Station TZ-EAS-0318,TZ,East,-17.5589,11.9715,997.1,False,True
NG-WES-0319,Station NG-WES-0319,NG,West,22.2885,-3.6988,288.0,False,True
SN-WES-0320,Station SN-WES-0320,SN,West,28.965,36.5405,2096.2,False,True
SO-EAS-0321,Station SO-EAS-0321,SO,East,-6.5813,23.3643,2227.8,True,True
MZ-SOU-0322,Station MZ-SOU-0322,MZ,South,27.9993,44.054,2709.3,False,True
CD-CEN-0323,Station CD-CEN-0323,CD,Central,-12.3296,-15.0729,9.5,False,True
CD-CEN-0324,Station CD-CEN-0324,CD,Central,-14.9957,-4.3299,2263.0,True,True
NG-WES-0325,Station NG-WES-0325,NG,West,-28.3147,32.9202,800.5,False,True
GH-WES-0326,Station GH-WES-0326,GH,West,28.876,14.8,2219.5,False,True
CM-CEN-0327,Station CM-CEN-0327,CM,Central,-30.0127,42.9797,517.1,True,True
ET-EAS-0328,Station ET-EAS-0328,ET,East,-20.1751,43.7741,872.6,False,True
MZ-SOU-0329,Station MZ-SOU-0329,MZ,South,-28.1592,-10.5348,1331.2,True,True
LY-NOR-0330,Station LY-NOR-0330,LY,North,29.3758,-12.6354,2554.2,False,True
CF-CEN-0331,Station CF-CEN-0331,CF,Central,10.6074,32.3088,953.5,False,True
TZ-EAS-0332,Station TZ-EAS-0332,TZ,East,-25.7843,-6.8609,1885.3,False,True
CF-CEN-0333,Station CF-CEN-0333,CF,Central,23.1099,2.5831,780.1,False,True
MA-NOR-0334,Station MA-NOR-0334,MA,North,-8.574,48.6605,328.9,True,True
NA-SOU-0335,Station NA-SOU-0335,NA,South,16.4518,35.3596,2957.7,True,True
KE-EAS-0336,Station KE-EAS-0336,KE,East,-28.6937,41.1748,60.6,False,True
TZ-EAS-0337,Station TZ-EAS-0337,TZ,East,27.9602,24.8169,1658.5,False,True
EG-NOR-0338,Station EG-NOR-0338,EG,North,13.9439,9.2767,2137.6,False,True
LY-NOR-0339,Station LY-NOR-0339,LY,North,-24.3206,2.0486,1395.8,True,True
SO-EAS-0340,Station SO-EAS-0340,SO,East,-31.5573,19.6996,2830.7,False,True
ZA-SOU-0341,Station ZA-SOU-0341,ZA,South,-27.9982,49.5407,2088.5,False,True
ZW-SOU-0342,Station ZW-SOU-0342,ZW,South,14.0334,-3.414,1612.8,True,True
CD-CEN-0343,Station CD-CEN-0343,CD,Central,20.0823,43.0428,1363.1,True,True
TZ-EAS-0344,Station TZ-EAS-0344,TZ,East,35.5607,12.4273,1371.5,False,True
EG-NOR-0345,Station EG-NOR-0345,EG,North,20.3058,46.1032,2222.5,False,True
SN-WES-0346,Station SN-WES-0346,SN,West,-22.0897,39.3182,1425.7,True,True
SN-WES-0347,Station SN-WES-0347,SN,West,34.7016,8.8083,2173.1,False,True
ZW-SOU-0348,Station ZW-SOU-0348,ZW,South,19.1681,-15.5484,489.0,False,True
LY-NOR-0349,Station LY-NOR-0349,LY,North,2.4764,2.0294,2336.5,True,True
SO-EAS-0350,Station SO-EAS-0350,SO,East,16.4027,18.6931,2954.0,False,True
GH-WES-0351,Station GH-WES-0351,GH,West,32.0572,24.117,1626.0,False,True
CM-CEN-0352,Station CM-CEN-0352,CM,Central,-4.1795,-13.7239,2486.0,True,True
EG-NOR-0353,Station EG-NOR-0353,EG,North,-15.7533,29.6518,1472.8,True,True
BW-SOU-0354,Station BW-SOU-0354,BW,South,-20.1859,50.2953,2940.1,False,True
CM-CEN-0355,Station CM-CEN-0355,CM,Central,17.3649,42.8432,312.2,False,True
ET-EAS-0356,Station ET-EAS-0356,ET,East,-17.9345,13.9708,358.9,False,True
CF-CEN-0357,Station CF-CEN-0357,CF,Central,-32.3521,1.7053,152.8,True,True
MZ-SOU-0358,Station MZ-SOU-0358,MZ,South,-21.6412,30.9646,2479.9,False,True
ZW-SOU-0359,Station ZW-SOU-0359,ZW,South,-2.1789,46.8911,1216.9,False,True
TN-NOR-0360,Station TN-NOR-0360,TN,North,16.125,36.547,1773.6,False,True
CI-WES-0361,Station CI-WES-0361,CI,West,32.9049,11.0787,2521.3,True,True
GA-CEN-0362,Station GA-CEN-0362,GA,Central,23.3854,-2.0131,1689.4,True,True
BW-SOU-0363,Station BW-SOU-0363,BW,South,-24.5798,19.6175,2252.7,True,True
CG-CEN-0364,Station CG-CEN-0364,CG,Central,21.4003,38.7614,2852.8,False,True
BW-SOU-0365,Station BW-SOU-0365,BW,South,-9.2705,14.1083,402.2,False,True
UG-EAS-0366,Station UG-EAS-0366,UG,East,29.4101,-11.4282,259.6,True,True
KE-EAS-0367,Station KE-EAS-0367,KE,East,-9.6546,41.6137,2931.9,True,True
LY-NOR-0368,Station LY-NOR-0368,LY,North,-17.8937,46.2438,1500.2,False,True
BW-SOU-0369,Station BW-SOU-0369,BW,South,16.5001,-9.2766,1868.3,True,True
LY-NOR-0370,Station LY-NOR-0370,LY,North,-27.8643,23.7801,2327.8,False,True
LY-NOR-0371,Station LY-NOR-0371,LY,North,-3.221,19.155,2542.8,False,True
DZ-NOR-0372,Station DZ-NOR-0372,DZ,North,-14.1179,-1.276,1352.9,False,True
ET-EAS-0373,Station ET-EAS-0373,ET,East,6.8428,-0.2351,2705.4,True,True
MA-NOR-0374,Station MA-NOR-0374,MA,North,29.4622,49.7801,59.9,True,True
EG-NOR-0375,Station EG-NOR-0375,EG,North,36.1781,17.9762,2522.8,False,True
ZA-SOU-0376,Station ZA-SOU-0376,ZA,South,11.1026,18.047,1746.0,False,True
CD-CEN-0377,Station CD-CEN-0377,CD,Central,1.6362,50.8316,2469.9,True,True
UG-EAS-0378,Station UG-EAS-0378,UG,East,0.7883,-13.175,780.9,True,True
NG-WES-0379,Station NG-WES-0379,NG,West,7.7046,47.9847,427.1,False,True
ET-EAS-0380,Station ET-EAS-0380,ET,East,-9.9987,31.8752,2273.0,True,True
CD-CEN-0381,Station CD-CEN-0381,CD,Central,21.0108,4.4023,2990.2,False,True
ZA-SOU-0382,Station ZA-SOU-0382,ZA,South,36.5625,29.3666,2827.7,False,True
MZ-SOU-0383,Station MZ-SOU-0383,MZ,South,6.6532,37.2308,1356.0,False,True
CD-CEN-0384,Station CD-CEN-0384,CD,Central,5.4476,5.1978,2493.7,False,True
LY-NOR-0385,Station LY-NOR-0385,LY,North,-3.4293,9.7522,2589.9,False,True
DZ-NOR-0386,Station DZ-NOR-0386,DZ,North,-30.3247,-2.9392,1668.7,True,True
ZW-SOU-0387,Station ZW-SOU-0387,ZW,South,-23.7023,16.4256,2204.8,True,True
LY-NOR-0388,Station LY-NOR-0388,LY,North,1.6528,13.445,2449.1,False,True
CI-WES-0389,Station CI-WES-0389,CI,West,-21.6962,29.721,399.2,False,True
BW-SOU-0390,Station BW-SOU-0390,BW,South,-23.8753,-13.0815,665.6,True,True
CD-CEN-0391,Station CD-CEN-0391,CD,Central,-15.5265,-1.1945,1739.3,True,True
UG-EAS-0392,Station UG-EAS-0392,UG,East,-29.6323,10.5291,158.3,False,True
CG-CEN-0393,Station CG-CEN-0393,CG,Central,-29.7159,-7.3689,1665.7,False,True
CF-CEN-0394,Station CF-CEN-0394,CF,Central,-18.8323,-7.1364,2049.8,False,True
GH-WES-0395,Station GH-WES-0395,GH,West,31.4955,-4.7215,297.7,False,True
TZ-EAS-0396,Station TZ-EAS-0396,TZ,East,-8.853,40.9505,1827.3,False,True
CI-WES-0397,Station CI-WES-0397,CI,West,-8.09,29.4633,830.3,False,True
TZ-EAS-0398,Station TZ-EAS-0398,TZ,East,-22.4251,22.1812,781.8,True,True
MZ-SOU-0399,Station MZ-SOU-0399,MZ,South,32.5338,38.5991,1305.4,False,True
SN-WES-0400,Station SN-WES-0400,SN,West,19.2449,4.6027,24.7,True,True
LY-NOR-0401,Station LY-NOR-0401,LY,North,-7.4848,-2.5789,763.7,True,True
CI-WES-0402,Station CI-WES-0402,CI,West,23.2942,4.0845,2055.6,True,True
CI-WES-0403,Station CI-WES-0403,CI,West,20.0769,26.953,2170.9,True,True
ZW-SOU-0404,Station ZW-SOU-0404,ZW,South,9.8464,7.5896,746.5,False,True
ET-EAS-0405,Station ET-EAS-0405,ET,East,-22.4611,23.9968,1570.4,False,True
KE-EAS-0406,Station KE-EAS-0406,KE,East,-16.3059,2.8088,2106.8,False,True
BW-SOU-0407,Station BW-SOU-0407,BW,South,26.538,41.8784,2540.5,True,True
GH-WES-0408,Station GH-WES-0408,GH,West,-17.8514,13.3541,620.0,True,True
BW-SOU-0409,Station BW-SOU-0409,BW,South,-31.2569,-11.8416,1692.0,True,True
MZ-SOU-0410,Station MZ-SOU-0410,MZ,South,-21.548,20.5837,1510.3,True,True
EG-NOR-0411,Station EG-NOR-0411,EG,North,5.2773,-11.8024,1746.3,True,True
ML-WES-0412,Station ML-WES-0412,ML,West,-6.2586,50.8081,862.4,True,True
NA-SOU-0413,Station NA-SOU-0413,NA,South,-29.1225,-7.1199,1275.9,False,True
CG-CEN-0414,Station CG-CEN-0414,CG,Central,-13.5711,22.9761,2115.2,True,True
NG-WES-0415,Station NG-WES-0415,NG,West,31.3564,24.6566,198.5,True,True
LY-NOR-0416,Station LY-NOR-0416,LY,North,34.1167,-4.7523,1613.0,True,True
CI-WES-0417,Station CI-WES-0417,CI,West,24.6594,3.0106,2146.4,False,True
CM-CEN-0418,Station CM-CEN-0418,CM,Central,26.314,-2.4477,1691.8,False,True
BW-SOU-0419,Station BW-SOU-0419,BW,South,-4.1283,-3.1703,1269.4,False,True
SN-WES-0420,Station SN-WES-0420,SN,West,-27.7879,48.3655,135.2,True,True
LY-NOR-0421,Station LY-NOR-0421,LY,North,-0.391,26.4,975.8,False,True
MZ-SOU-0422,Station MZ-SOU-0422,MZ,South,-26.4342,32.0324,2996.3,False,True
GA-CEN-0423,Station GA-CEN-0423,GA,Central,4.5002,47.5521,221.0,False,True
CD-CEN-0424,Station CD-CEN-0424,CD,Central,30.6941,24.229,349.9,True,True
GH-WES-0425,Station GH-WES-0425,GH,West,9.0047,23.2901,1353.7,False,True
MZ-SOU-0426,Station MZ-SOU-0426,MZ,South,-13.6055,48.3595,1829.1,True,True
CF-CEN-0427,Station CF-CEN-0427,CF,Central,-5.5098,30.8682,2071.6,True,True
EG-NOR-0428,Station EG-NOR-0428,EG,North,-28.4761,36.9311,2596.6,False,True
CG-CEN-0429,Station CG-CEN-0429,CG,Central,-12.6606,33.9858,2376.6,False,True
UG-EAS-0430,Station UG-EAS-0430,UG,East,25.9435,17.1627,735.0,False,True
CI-WES-0431,Station CI-WES-0431,CI,West,-19.4533,10.0328,195.6,True,True
CM-CEN-0432,Station CM-CEN-0432,CM,Central,-0.8807,-11.2757,2562.0,True,True
BW-SOU-0433,Station BW-SOU-0433,BW,South,29.1086,10.5488,2600.2,False,True
CM-CEN-0434,Station CM-CEN-0434,CM,Central,2.6109,18.4341,1693.9,True,True
TZ-EAS-0435,Station TZ-EAS-0435,TZ,East,17.1116,26.7791,1650.7,False,True
LY-NOR-0436,Station LY-NOR-0436,LY,North,35.9514,33.1517,2862.4,False,True
UG-EAS-0437,Station UG-EAS-0437,UG,East,20.199,34.8167,17.3,False,True
KE-EAS-0438,Station KE-EAS-0438,KE,East,-22.14,13.5806,1230.0,True,True
NG-WES-0439,Station NG-WES-0439,NG,West,25.0372,3.4998,975.6,False,True
SO-EAS-0440,Station SO-EAS-0440,SO,East,10.0689,20.3322,2657.9,True,True
TN-NOR-0441,Station TN-NOR-0441,TN,North,31.4342,11.5458,959.5,True,True
MA-NOR-0442,Station MA-NOR-0442,MA,North,29.7097,-6.831,1427.4,False,True
CD-CEN-0443,Station CD-CEN-0443,CD,Central,5.2866,17.226,329.5,True,True
GH-WES-0444,Station GH-WES-0444,GH,West,7.9336,-6.9466,892.6,False,True
LY-NOR-0445,Station LY-NOR-0445,LY,North,34.558,25.315,1945.4,True,True
SO-EAS-0446,Station SO-EAS-0446,SO,East,-28.4753,37.1318,378.0,False,True
ET-EAS-0447,Station ET-EAS-0447,ET,East,-13.4225,-14.9553,719.6,True,True
LY-NOR-0448,Station LY-NOR-0448,LY,North,1.4709,-3.0343,2575.8,True,True
ML-WES-0449,Station ML-WES-0449,ML,West,-34.1656,-11.7692,2466.3,False,True
CG-CEN-0450,Station CG-CEN-0450,CG,Central,-33.5095,7.6885,662.6,True,True
UG-EAS-0451,Station UG-EAS-0451,UG,East,5.0308,25.338,2068.3,False,True
BW-SOU-0452,Station BW-SOU-0452,BW,South,-14.5926,0.7262,885.3,False,True
CI-WES-0453,Station CI-WES-0453,CI,West,36.9887,-6.7488,1096.8,True,True
CM-CEN-0454,Station CM-CEN-0454,CM,Central,28.1669,14.9324,1960.0,True,True
MZ-SOU-0455,Station MZ-SOU-0455,MZ,South,-18.8403,43.4584,1840.3,True,True
SN-WES-0456,Station SN-WES-0456,SN,West,-33.1975,8.5694,2338.2,False,True
TZ-EAS-0457,Station TZ-EAS-0457,TZ,East,-19.2448,4.5095,833.9,True,True
MA-NOR-0458,Station MA-NOR-0458,MA,North,4.4504,17.8071,2591.6,False,True
TN-NOR-0459,Station TN-NOR-0459,TN,North,-8.3346,9.4748,2479.5,False,True
NG-WES-0460,Station NG-WES-0460,NG,West,12.1619,-12.767,1519.4,True,True
ET-EAS-0461,Station ET-EAS-0461,ET,East,-18.3558,35.369,420.3,True,True
GH-WES-0462,Station GH-WES-0462,GH,West,-26.5211,15.42,2412.9,False,True
GA-CEN-0463,Station GA-CEN-0463,GA,Central,28.1407,-15.1101,750.8,False,True
GA-CEN-0464,Station GA-CEN-0464,GA,Central,-30.4605,22.4429,2469.2,False,True
DZ-NOR-0465,Station DZ-NOR-0465,DZ,North,22.7721,6.8612,2685.8,False,True
BW-SOU-0466,Station BW-SOU-0466,BW,South,9.2339,43.6366,2792.4,False,True
MZ-SOU-0467,Station MZ-SOU-0467,MZ,South,26.9659,11.936,1249.3,True,True
ET-EAS-0468,Station ET-EAS-0468,ET,East,-9.5242,41.791,94.8,False,True
CG-CEN-0469,Station CG-CEN-0469,CG,Central,22.9807,-9.2514,1534.8,True,True
SO-EAS-0470,Station SO-EAS-0470,SO,East,32.2474,38.5257,795.7,False,True
CM-CEN-0471,Station CM-CEN-0471,CM,Central,-23.0246,-7.6903,1169.7,True,True
MA-NOR-0472,Station MA-NOR-0472,MA,North,35.0684,42.381,2834.1,True,True
TN-NOR-0473,Station TN-NOR-0473,TN,North,3.8754,15.2901,2792.8,True,True
NG-WES-0474,Station NG-WES-0474,NG,West,29.5188,7.4517,1227.9,True,True
EG-NOR-0475,Station EG-NOR-0475,EG,North,-6.623,44.705,1081.5,True,True
CM-CEN-0476,Station CM-CEN-0476,CM,Central,8.7177,34.5201,283.1,False,True
SO-EAS-0477,Station SO-EAS-0477,SO,East,-24.423,27.7431,2692.0,False,True
CF-CEN-0478,Station CF-CEN-0478,CF,Central,19.4839,5.7359,352.3,False,True
GH-WES-0479,Station GH-WES-0479,GH,West,-32.1792,13.4824,1525.0,True,True
CI-WES-0480,Station CI-WES-0480,CI,West,25.3071,29.1981,1842.2,False,True
NA-SOU-0481,Station NA-SOU-0481,NA,South,30.569,39.6166,2548.8,True,True
TN-NOR-0482,Station TN-NOR-0482,TN,North,-30.3556,-1.5037,803.5,False,True
ZA-SOU-0483,Station ZA-SOU-0483,ZA,South,35.1473,36.2121,903.1,False,True
BW-SOU-0484,Station BW-SOU-0484,BW,South,23.6051,18.4914,2575.2,True,True
NA-SOU-0485,Station NA-SOU-0485,NA,South,-16.0504,18.7674,1121.0,True,True
MA-NOR-0486,Station MA-NOR-0486,MA,North,-14.4929,20.7646,1961.9,True,True
CG-CEN-0487,Station CG-CEN-0487,CG,Central,-29.6523,34.5866,163.9,True,True
SO-EAS-0488,Station SO-EAS-0488,SO,East,-29.0362,30.5644,2985.9,False,True
CG-CEN-0489,Station CG-CEN-0489,CG,Central,26.3507,50.3911,2462.4,True,True
MA-NOR-0490,Station MA-NOR-0490,MA,North,-18.9099,3.4632,2616.0,True,True
MZ-SOU-0491,Station MZ-SOU-0491,MZ,South,3.7179,34.847,669.5,False,True
ML-WES-0492,Station ML-WES-0492,ML,West,16.7091,28.2906,1464.8,False,True
LY-NOR-0493,Station LY-NOR-0493,LY,North,-24.809,0.1785,108.1,False,True
ZW-SOU-0494,Station ZW-SOU-0494,ZW,South,-19.1493,23.8383,2024.0,False,True
CI-WES-0495,Station CI-WES-0495,CI,West,-18.8925,-4.4807,1668.6,False,True
CF-CEN-0496,Station CF-CEN-0496,CF,Central,-19.6063,34.9897,436.5,True,True
TN-NOR-0497,Station TN-NOR-0497,TN,North,8.2563,44.5035,2206.2,False,True
ZW-SOU-0498,Station ZW-SOU-0498,ZW,South,9.6178,46.4488,1844.7,False,True
ZW-SOU-0499,Station ZW-SOU-0499,ZW,South,12.9984,3.6581,330.5,True,True
NG-WES-0500,Station NG-WES-0500,NG,West,36.8696,33.7622,1592.8,False,True
GH-WES-0501,Station GH-WES-0501,GH,West,15.3324,5.9696,2831.6,False,True
MA-NOR-0502,Station MA-NOR-0502,MA,North,-17.6439,46.1396,419.6,True,True
LY-NOR-0503,Station LY-NOR-0503,LY,North,-15.693,-6.0005,1615.7,False,True
CG-CEN-0504,Station CG-CEN-0504,CG,Central,2.5016,31.9851,2239.6,False,True
BW-SOU-0505,Station BW-SOU-0505,BW,South,24.2896,-13.0729,2000.6,False,True
LY-NOR-0506,Station LY-NOR-0506,LY,North,27.4156,19.3176,1416.0,True,True
CF-CEN-0507,Station CF-CEN-0507,CF,Central,-10.2762,31.1567,1346.7,False,True
NA-SOU-0508,Station NA-SOU-0508,NA,South,9.9285,44.1966,2888.5,False,True
SN-WES-0509,Station SN-WES-0509,SN,West,32.78,30.9561,2651.2,False,True
CM-CEN-0510,Station CM-CEN-0510,CM,Central,34.9276,-0.4038,2279.6,False,True
CF-CEN-0511,Station CF-CEN-0511,CF,Central,9.768,4.51,2092.1,False,True
CM-CEN-0512,Station CM-CEN-0512,CM,Central,22.4765,-11.0744,337.3,True,True
ZA-SOU-0513,Station ZA-SOU-0513,ZA,South,-10.3403,0.522,259.3,False,True
CI-WES-0514,Station CI-WES-0514,CI,West,3.3069,-16.7166,742.8,False,True
NA-SOU-0515,Station NA-SOU-0515,NA,South,16.7864,7.2533,35.7,False,True
ZW-SOU-0516,Station ZW-SOU-0516,ZW,South,-24.2493,-4.0112,804.5,True,True
CF-CEN-0517,Station CF-CEN-0517,CF,Central,-11.9996,39.9306,2199.0,True,True
CF-CEN-0518,Station CF-CEN-0518,CF,Central,34.9306,18.2132,1216.2,True,True
CI-WES-0519,Station CI-WES-0519,CI,West,-19.4134,11.1596,958.0,False,True
TZ-EAS-0520,Station TZ-EAS-0520,TZ,East,-24.1143,-15.0904,1597.2,True,True
CI-WES-0521,Station CI-WES-0521,CI,West,-8.7216,48.3106,277.0,True,True
UG-EAS-0522,Station UG-EAS-0522,UG,East,-34.6091,7.9915,359.3,True,True
CD-CEN-0523,Station CD-CEN-0523,CD,Central,26.5523,10.2115,1981.8,True,True
GA-CEN-0524,Station GA-CEN-0524,GA,Central,3.197,28.5898,1420.3,True,True
SN-WES-0525,Station SN-WES-0525,SN,West,-14.5183,40.6158,1448.7,True,True
TN-NOR-0526,Station TN-NOR-0526,TN,North,2.0342,26.289,622.0,False,True
ZA-SOU-0527,Station ZA-SOU-0527,ZA,South,-1.1308,6.8323,2627.2,False,True
BW-SOU-0528,Station BW-SOU-0528,BW,South,36.3781,-3.7021,2731.0,False,True
UG-EAS-0529,Station UG-EAS-0529,UG,East,35.187,4.4993,2615.6,False,True
KE-EAS-0530,Station KE-EAS-0530,KE,East,11.173,12.2112,2679.1,True,True
TZ-EAS-0531,Station TZ-EAS-0531,TZ,East,-28.0679,0.1562,872.1,True,True
EG-NOR-0532,Station EG-NOR-0532,EG,North,32.3939,3.5667,1493.7,False,True
GA-CEN-0533,Station GA-CEN-0533,GA,Central,18.0368,25.488,1084.5,True,True
LY-NOR-0534,Station LY-NOR-0534,LY,North,32.5509,15.1916,2813.9,False,True
SN-WES-0535,Station SN-WES-0535,SN,West,-9.0959,47.6174,1006.8,True,True
LY-NOR-0536,Station LY-NOR-0536,LY,North,25.3998,13.1882,943.8,True,True
TN-NOR-0537,Station TN-NOR-0537,TN,North,9.062,-2.6862,2416.9,False,True
CM-CEN-0538,Station CM-CEN-0538,CM,Central,-32.0493,50.0238,1579.9,True,True
NG-WES-0539,Station NG-WES-0539,NG,West,32.8367,5.5968,29.2,True,True
NG-WES-0540,Station NG-WES-0540,NG,West,21.1961,-0.3343,1695.4,False,True
SN-WES-0541,Station SN-WES-0541,SN,West,23.2959,9.7278,2655.7,False,True
TZ-EAS-0542,Station TZ-EAS-0542,TZ,East,24.595,32.7985,315.6,False,True
CM-CEN-0543,Station CM-CEN-0543,CM,Central,-13.8572,-10.7995,2408.1,False,True
SO-EAS-0544,Station SO-EAS-0544,SO,East,-21.1043,9.5882,2087.7,False,True
DZ-NOR-0545,Station DZ-NOR-0545,DZ,North,-21.2121,45.7055,2234.8,True,True
TN-NOR-0546,Station TN-NOR-0546,TN,North,20.8846,0.0025,1757.4,False,True
ML-WES-0547,Station ML-WES-0547,ML,West,3.1081,18.9249,1548.4,False,True
ET-EAS-0548,Station ET-EAS-0548,ET,East,-25.7146,16.1088,78.1,True,True
CF-CEN-0549,Station CF-CEN-0549,CF,Central,-2.7709,31.4308,2502.4,True,True
ZW-SOU-0550,Station ZW-SOU-0550,ZW,South,24.1688,27.1019,1078.4,False,True
BW-SOU-0551,Station BW-SOU-0551,BW,South,-19.6382,40.9036,1962.2,True,True
TZ-EAS-0552,Station TZ-EAS-0552,TZ,East,18.2102,21.4323,1487.4,False,True
EG-NOR-0553,Station EG-NOR-0553,EG,North,26.4239,31.107,2177.0,True,True
MZ-SOU-0554,Station MZ-SOU-0554,MZ,South,32.1207,-8.5216,1722.5,True,True
LY-NOR-0555,Station LY-NOR-0555,LY,North,12.7542,-11.2741,2080.6,False,True
CF-CEN-0556,Station CF-CEN-0556,CF,Central,4.6239,14.593,2566.8,True,True
UG-EAS-0557,Station UG-EAS-0557,UG,East,28.392,14.2981,1715.4,True,True
MA-NOR-0558,Station MA-NOR-0558,MA,North,28.977,-14.7628,763.3,True,True
CD-CEN-0559,Station CD-CEN-0559,CD,Central,29.7578,14.2866,2312.2,True,True
CG-CEN-0560,Station CG-CEN-0560,CG,Central,-5.5525,16.8918,1047.9,False,True
SN-WES-0561,Station SN-WES-0561,SN,West,22.4552,29.2494,2261.4,False,True
MZ-SOU-0562,Station MZ-SOU-0562,MZ,South,10.7778,48.3844,2234.9,False,True
TZ-EAS-0563,Station TZ-EAS-0563,TZ,East,-13.2542,33.7885,1383.7,True,True
CI-WES-0564,Station CI-WES-0564,CI,West,36.4415,39.0262,820.8,True,True
NG-WES-0565,Station NG-WES-0565,NG,West,-9.3145,-14.3116,1301.0,True,True
CI-WES-0566,Station CI-WES-0566,CI,West,-21.9508,33.208,140.4,True,True
MA-NOR-0567,Station MA-NOR-0567,MA,North,-7.4846,33.5864,5.0,True,True
EG-NOR-0568,Station EG-NOR-0568,EG,North,-14.0857,6.6234,306.1,False,True
ET-EAS-0569,Station ET-EAS-0569,ET,East,-9.8628,-1.0364,1029.8,True,True
SO-EAS-0570,Station SO-EAS-0570,SO,East,19.4914,46.8058,2913.9,True,True
EG-NOR-0571,Station EG-NOR-0571,EG,North,-10.2964,36.8686,1087.7,False,True
KE-EAS-0572,Station KE-EAS-0572,KE,East,-23.3169,34.5373,855.7,False,True
CD-CEN-0573,Station CD-CEN-0573,CD,Central,14.9313,-8.7201,1086.9,False,True
TZ-EAS-0574,Station TZ-EAS-0574,TZ,East,23.3838,20.4886,863.1,False,True
SN-WES-0575,Station SN-WES-0575,SN,West,18.5737,1.4781,731.6,False,True
GH-WES-0576,Station GH-WES-0576,GH,West,7.7102,3.0822,1811.3,True,True
ET-EAS-0577,Station ET-EAS-0577,ET,East,10.12,23.1903,2431.9,False,True
LY-NOR-0578,Station LY-NOR-0578,LY,North,-1.0106,33.4895,2545.2,False,True
KE-EAS-0579,Station KE-EAS-0579,KE,East,-3.9786,37.9952,468.4,True,True
LY-NOR-0580,Station LY-NOR-0580,LY,North,11.516,28.1348,1348.7,False,True
TN-NOR-0581,Station TN-NOR-0581,TN,North,32.8079,48.3219,1250.8,False,True
GA-CEN-0582,Station GA-CEN-0582,GA,Central,7.9,-10.1503,1811.7,True,True
CD-CEN-0583,Station CD-CEN-0583,CD,Central,3.7383,47.1031,2022.8,False,True
BW-SOU-0584,Station BW-SOU-0584,BW,South,18.0162,-2.6587,228.4,True,True
NA-SOU-0585,Station NA-SOU-0585,NA,South,-22.9154,27.682,127.8,True,True
CM-CEN-0586,Station CM-CEN-0586,CM,Central,29.8568,32.1842,496.7,True,True
ZA-SOU-0587,Station ZA-SOU-0587,ZA,South,-7.2251,47.3527,1087.6,False,True
MZ-SOU-0588,Station MZ-SOU-0588,MZ,South,-30.0532,-13.3699,1894.3,False,True
NG-WES-0589,Station NG-WES-0589,NG,West,33.1365,37.2567,2447.4,True,True
CI-WES-0590,Station CI-WES-0590,CI,West,-11.8257,50.5042,569.2,True,True
NG-WES-0591,Station NG-WES-0591,NG,West,13.9795,-10.9675,586.3,False,True
DZ-NOR-0592,Station DZ-NOR-0592,DZ,North,-26.3462,-0.4394,2530.7,True,True
ML-WES-0593,Station ML-WES-0593,ML,West,4.4981,22.6213,2189.6,True,True
DZ-NOR-0594,Station DZ-NOR-0594,DZ,North,-19.8928,12.8527,2988.4,False,True
GA-CEN-0595,Station GA-CEN-0595,GA,Central,9.4206,-4.4715,669.7,True,True
CI-WES-0596,Station CI-WES-0596,CI,West,28.7194,-6.5374,1505.8,False,True
SO-EAS-0597,Station SO-EAS-0597,SO,East,4.744,30.6398,790.6,False,True
CI-WES-0598,Station CI-WES-0598,CI,West,-24.187,24.2807,77.3,True,True
UG-EAS-0599,Station UG-EAS-0599,UG,East,13.8469,39.6867,2397.0,True,True
CG-CEN-0600,Station CG-CEN-0600,CG,Central,24.3127,20.506,1606.1,True,True
MA-NOR-0601,Station MA-NOR-0601,MA,North,-18.2488,21.2902,170.2,False,True
ML-WES-0602,Station ML-WES-0602,ML,West,-34.7043,-7.3692,1547.6,False,True
NA-SOU-0603,Station NA-SOU-0603,NA,South,-16.6699,12.8303,2437.4,False,True
MZ-SOU-0604,Station MZ-SOU-0604,MZ,South,-9.183,42.3825,474.2,False,True
EG-NOR-0605,Station EG-NOR-0605,EG,North,-23.1524,32.3462,1612.6,True,True
ZW-SOU-0606,Station ZW-SOU-0606,ZW,South,-25.5957,22.9712,159.1,True,True
NG-WES-0607,Station NG-WES-0607,NG,West,-21.0439,27.3216,1283.1,True,True
ET-EAS-0608,Station ET-EAS-0608,ET,East,-17.2962,-3.2525,2568.5,False,True
MA-NOR-0609,Station MA-NOR-0609,MA,North,0.5516,-0.5294,2729.2,False,True
MA-NOR-0610,Station MA-NOR-0610,MA,North,8.6591,-9.2068,928.7,False,True
CG-CEN-0611,Station CG-CEN-0611,CG,Central,-4.685,32.0939,1731.8,False,True
KE-EAS-0612,Station KE-EAS-0612,KE,East,-34.2854,-1.7808,722.4,False,True
CD-CEN-0613,Station CD-CEN-0613,CD,Central,-29.1268,29.369,2434.9,False,True
GA-CEN-0614,Station GA-CEN-0614,GA,Central,13.6242,18.6237,232.3,True,True
ZW-SOU-0615,Station ZW-SOU-0615,ZW,South,30.747,-7.8104,2948.6,True,True
CD-CEN-0616,Station CD-CEN-0616,CD,Central,31.1914,25.6673,1211.3,True,True
MZ-SOU-0617,Station MZ-SOU-0617,MZ,South,1.3952,17.688,2564.0,False,True
CD-CEN-0618,Station CD-CEN-0618,CD,Central,36.1352,23.2898,2607.3,False,True
GA-CEN-0619,Station GA-CEN-0619,GA,Central,25.3693,41.2339,2911.5,False,True
ZW-SOU-0620,Station ZW-SOU-0620,ZW,South,28.9088,40.1684,72.5,True,True
CM-CEN-0621,Station CM-CEN-0621,CM,Central,4.1096,38.0697,2620.9,True,True
TZ-EAS-0622,Station TZ-EAS-0622,TZ,East,-28.5086,17.6233,853.9,True,True
ET-EAS-0623,Station ET-EAS-0623,ET,East,-25.2328,-5.8911,283.6,False,True
ML-WES-0624,Station ML-WES-0624,ML,West,19.1586,-8.7891,1051.6,True,True
CM-CEN-0625,Station CM-CEN-0625,CM,Central,-19.9378,-12.9556,2289.5,False,True
SN-WES-0626,Station SN-WES-0626,SN,West,-25.9794,37.7842,1139.0,True,True
SN-WES-0627,Station SN-WES-0627,SN,West,17.2876,45.888,1917.8,True,True
CI-WES-0628,Station CI-WES-0628,CI,West,-10.64,-16.6882,125.1,False,True
TN-NOR-0629,Station TN-NOR-0629,TN,North,28.6132,4.3404,865.5,True,True
CM-CEN-0630,Station CM-CEN-0630,CM,Central,-30.3464,-7.5192,1885.6,False,True
CF-CEN-0631,Station CF-CEN-0631,CF,Central,-3.4012,-0.3054,216.8,False,True
GA-CEN-0632,Station GA-CEN-0632,GA,Central,-5.7144,34.1125,92.6,False,True
CF-CEN-0633,Station CF-CEN-0633,CF,Central,25.2318,11.7918,731.4,False,True
ML-WES-0634,Station ML-WES-0634,ML,West,30.1547,3.8042,885.1,False,True
MA-NOR-0635,Station MA-NOR-0635,MA,North,4.645,-3.3002,2846.1,False,True
GH-WES-0636,Station GH-WES-0636,GH,West,-23.4054,4.3159,1751.3,False,True
DZ-NOR-0637,Station DZ-NOR-0637,DZ,North,-6.2851,-13.4891,1539.5,False,True
TN-NOR-0638,Station TN-NOR-0638,TN,North,33.1604,1.4986,657.7,False,True
CF-CEN-0639,Station CF-CEN-0639,CF,Central,-5.0731,19.8968,895.1,False,True
TN-NOR-0640,Station TN-NOR-0640,TN,North,-16.9012,15.9128,413.7,False,True
CG-CEN-0641,Station CG-CEN-0641,CG,Central,-9.4687,-5.3162,2954.0,True,True
CG-CEN-0642,Station CG-CEN-0642,CG,Central,34.2742,32.1306,2602.8,False,True
NA-SOU-0643,Station NA-SOU-0643,NA,South,-0.6888,27.6484,1646.2,False,True
NG-WES-0644,Station NG-WES-0644,NG,West,21.136,33.5287,1783.1,False,True
BW-SOU-0645,Station BW-SOU-0645,BW,South,-2.0013,-5.1694,1685.9,False,True
EG-NOR-0646,Station EG-NOR-0646,EG,North,25.2965,19.4168,50.5,True,True
NA-SOU-0647,Station NA-SOU-0647,NA,South,18.8583,29.2174,1088.2,False,True
ZA-SOU-0648,Station ZA-SOU-0648,ZA,South,28.5857,-9.2175,1966.1,False,True
DZ-NOR-0649,Station DZ-NOR-0649,DZ,North,-0.211,14.4269,465.1,True,True
ZA-SOU-0650,Station ZA-SOU-0650,ZA,South,14.6109,-16.628,2241.1,False,True
UG-EAS-0651,Station UG-EAS-0651,UG,East,11.7564,30.0013,491.6,True,True
GH-WES-0652,Station GH-WES-0652,GH,West,-0.9173,31.2937,1576.0,True,True
KE-EAS-0653,Station KE-EAS-0653,KE,East,32.446,45.1228,507.6,True,True
CI-WES-0654,Station CI-WES-0654,CI,West,-6.8559,34.8458,499.8,True,True
GH-WES-0655,Station GH-WES-0655,GH,West,-6.4931,-13.3857,792.3,True,True
GH-WES-0656,Station GH-WES-0656,GH,West,-3.2982,-15.9023,7.6,True,True
ZA-SOU-0657,Station ZA-SOU-0657,ZA,South,30.5578,-6.9776,2160.6,False,True
ZW-SOU-0658,Station ZW-SOU-0658,ZW,South,5.1904,37.426,643.5,True,True
MZ-SOU-0659,Station MZ-SOU-0659,MZ,South,31.3367,10.9493,996.4,True,True
MZ-SOU-0660,Station MZ-SOU-0660,MZ,South,-3.0394,48.4454,2441.2,False,True
EG-NOR-0661,Station EG-NOR-0661,EG,North,-17.6598,-16.2147,489.7,False,True
NG-WES-0662,Station NG-WES-0662,NG,West,14.5872,-10.8492,1371.1,False,True
MA-NOR-0663,Station MA-NOR-0663,MA,North,7.9542,25.0662,2036.6,True,True
EG-NOR-0664,Station EG-NOR-0664,EG,North,16.5899,5.8542,68.6,False,True
CM-CEN-0665,Station CM-CEN-0665,CM,Central,17.578,50.809,1757.1,False,True
SO-EAS-0666,Station SO-EAS-0666,SO,East,18.8886,-3.7406,1230.9,False,True
ML-WES-0667,Station ML-WES-0667,ML,West,-5.6856,10.6562,1164.7,True,True
UG-EAS-0668,Station UG-EAS-0668,UG,East,35.4278,28.66,2657.9,True,True
CF-CEN-0669,Station CF-CEN-0669,CF,Central,-29.5185,5.1141,5.6,False,True
CM-CEN-0670,Station CM-CEN-0670,CM,Central,-24.1109,25.47,2221.3,True,True
CI-WES-0671,Station CI-WES-0671,CI,West,-13.6988,3.76,713.9,True,True
GA-CEN-0672,Station GA-CEN-0672,GA,Central,-15.1415,24.6021,2293.7,True,True
ZW-SOU-0673,Station ZW-SOU-0673,ZW,South,-8.623,10.8637,908.7,False,True
SN-WES-0674,Station SN-WES-0674,SN,West,-15.2847,4.9722,2751.5,True,True
NA-SOU-0675,Station NA-SOU-0675,NA,South,9.7503,22.7814,130.0,False,True
SN-WES-0676,Station SN-WES-0676,SN,West,-8.9838,30.9901,109.8,False,True
LY-NOR-0677,Station LY-NOR-0677,LY,North,-19.5402,40.2438,2878.4,False,True
MA-NOR-0678,Station MA-NOR-0678,MA,North,1.4341,17.2363,625.4,False,True
MA-NOR-0679,Station MA-NOR-0679,MA,North,-7.8693,9.53,1469.2,True,True
NA-SOU-0680,Station NA-SOU-0680,NA,South,-13.7377,11.5907,660.6,True,True
BW-SOU-0681,Station BW-SOU-0681,BW,South,12.4129,-6.7736,2940.2,True,True
NG-WES-0682,Station NG-WES-0682,NG,West,-2.5972,18.8295,333.4,True,True
BW-SOU-0683,Station BW-SOU-0683,BW,South,12.4287,19.2312,2361.8,True,True
BW-SOU-0684,Station BW-SOU-0684,BW,South,-16.5256,31.8081,2693.1,False,True
SN-WES-0685,Station SN-WES-0685,SN,West,32.5291,13.8215,706.8,False,True
MA-NOR-0686,Station MA-NOR-0686,MA,North,-23.7928,44.9194,866.1,False,True
NG-WES-0687,Station NG-WES-0687,NG,West,-29.1526,29.7936,2289.3,True,True
ET-EAS-0688,Station ET-EAS-0688,ET,East,-23.9002,8.8967,1265.7,True,True
KE-EAS-0689,Station KE-EAS-0689,KE,East,20.2546,34.8605,1615.4,True,True
TZ-EAS-0690,Station TZ-EAS-0690,TZ,East,35.4113,-11.0047,1708.8,True,True
EG-NOR-0691,Station EG-NOR-0691,EG,North,28.0298,-12.0366,2937.7,True,True
CF-CEN-0692,Station CF-CEN-0692,CF,Central,-30.5712,13.6751,190.9,False,True
CI-WES-0693,Station CI-WES-0693,CI,West,-4.4444,-8.4967,287.7,False,True
ZW-SOU-0694,Station ZW-SOU-0694,ZW,South,-0.8871,32.4538,100.0,True,True
NA-SOU-0695,Station NA-SOU-0695,NA,South,-3.3081,13.5667,658.9,False,True
TZ-EAS-0696,Station TZ-EAS-0696,TZ,East,36.264,18.9259,1330.1,False,True
CI-WES-0697,Station CI-WES-0697,CI,West,6.2385,-5.0544,2007.3,True,True
CI-WES-0698,Station CI-WES-0698,CI,West,-20.9722,44.6533,1620.2,True,True
GH-WES-0699,Station GH-WES-0699,GH,West,-22.8906,-9.0228,1578.2,False,True
MA-NOR-0700,Station MA-NOR-0700,MA,North,-0.2568,45.8821,1193.3,False,True
TZ-EAS-0701,Station TZ-EAS-0701,TZ,East,22.4515,13.2996,2232.0,False,True
ET-EAS-0702,Station ET-EAS-0702,ET,East,36.5451,38.5976,2594.8,False,True
ET-EAS-0703,Station ET-EAS-0703,ET,East,-22.5405,-2.1595,1246.5,True,True
GH-WES-0704,Station GH-WES-0704,GH,West,-6.5128,50.9832,1804.4,True,True
CF-CEN-0705,Station CF-CEN-0705,CF,Central,-4.874,19.9087,359.8,True,True
ML-WES-0706,Station ML-WES-0706,ML,West,20.5174,6.3346,1628.8,True,True
ML-WES-0707,Station ML-WES-0707,ML,West,22.9609,35.1514,2386.0,False,True
TZ-EAS-0708,Station TZ-EAS-0708,TZ,East,-32.8646,12.2938,1280.9,False,True
LY-NOR-0709,Station LY-NOR-0709,LY,North,21.9483,19.542,2182.9,False,True
NG-WES-0710,Station NG-WES-0710,NG,West,-25.2376,-12.5592,2776.9,False,True
CG-CEN-0711,Station CG-CEN-0711,CG,Central,-0.4902,-15.1986,2293.4,True,True
NA-SOU-0712,Station NA-SOU-0712,NA,South,18.2355,32.4238,462.2,False,True
DZ-NOR-0713,Station DZ-NOR-0713,DZ,North,-1.2282,34.6041,770.0,False,True
CM-CEN-0714,Station CM-CEN-0714,CM,Central,24.612,38.7826,2480.2,True,True
GA-CEN-0715,Station GA-CEN-0715,GA,Central,8.659,-12.0303,958.6,True,True
SO-EAS-0716,Station SO-EAS-0716,SO,East,-6.936,50.562,2160.4,True,True
ML-WES-0717,Station ML-WES-0717,ML,West,-25.109,-1.3807,211.8,True,True
TN-NOR-0718,Station TN-NOR-0718,TN,North,-6.2806,2.6664,2585.4,False,True
ML-WES-0719,Station ML-WES-0719,ML,West,1.0225,0.7154,2611.4,True,True
TN-NOR-0720,Station TN-NOR-0720,TN,North,-26.5311,12.4884,2333.4,False,True
KE-EAS-0721,Station KE-EAS-0721,KE,East,24.3393,30.686,840.3,False,True
DZ-NOR-0722,Station DZ-NOR-0722,DZ,North,-9.9852,21.4478,634.6,False,True
MZ-SOU-0723,Station MZ-SOU-0723,MZ,South,19.3537,22.2458,1694.3,True,True
ZA-SOU-0724,Station ZA-SOU-0724,ZA,South,-29.8026,38.8284,2305.2,True,True
TN-NOR-0725,Station TN-NOR-0725,TN,North,33.3863,32.0114,2103.5,True,True
SO-EAS-0726,Station SO-EAS-0726,SO,East,-6.6713,1.6243,1916.3,True,True
ML-WES-0727,Station ML-WES-0727,ML,West,-2.611,12.2753,1424.4,False,True
LY-NOR-0728,Station LY-NOR-0728,LY,North,33.0968,34.8103,742.8,False,True
CD-CEN-0729,Station CD-CEN-0729,CD,Central,-19.7056,-5.2407,2964.1,True,True
CF-CEN-0730,Station CF-CEN-0730,CF,Central,13.4605,46.703,768.2,False,True
GH-WES-0731,Station GH-WES-0731,GH,West,17.4392,40.5259,308.7,True,True
CF-CEN-0732,Station CF-CEN-0732,CF,Central,-19.2316,13.9056,2010.1,False,True
EG-NOR-0733,Station EG-NOR-0733,EG,North,25.6504,40.0576,2705.3,False,True
MZ-SOU-0734,Station MZ-SOU-0734,MZ,South,7.6984,33.0087,2495.7,False,True
MA-NOR-0735,Station MA-NOR-0735,MA,North,29.8049,-14.2454,2131.7,True,True
CM-CEN-0736,Station CM-CEN-0736,CM,Central,-17.4023,22.0226,44.4,True,True
LY-NOR-0737,Station LY-NOR-0737,LY,North,-15.943,-6.7283,2917.9,True,True
CM-CEN-0738,Station CM-CEN-0738,CM,Central,-7.2376,-7.4143,1039.1,True,True
ZW-SOU-0739,Station ZW-SOU-0739,ZW,South,-13.6614,32.7704,2132.1,True,True
NA-SOU-0740,Station NA-SOU-0740,NA,South,8.0083,5.9604,142.6,True,True
GA-CEN-0741,Station GA-CEN-0741,GA,Central,7.0707,17.1668,977.5,False,True
CM-CEN-0742,Station CM-CEN-0742,CM,Central,-7.0134,28.0972,123.7,True,True
TN-NOR-0743,Station TN-NOR-0743,TN,North,31.6804,-8.4966,1961.9,True,True
UG-EAS-0744,Station UG-EAS-0744,UG,East,6.3903,-3.4955,2018.0,False,True
SN-WES-0745,Station SN-WES-0745,SN,West,-20.3764,48.795,1643.3,True,True
LY-NOR-0746,Station LY-NOR-0746,LY,North,-31.2523,11.4668,897.3,True,True
KE-EAS-0747,Station KE-EAS-0747,KE,East,-22.8289,-12.0097,119.3,True,True
ML-WES-0748,Station ML-WES-0748,ML,West,29.1776,14.2108,595.9,True,True
GA-CEN-0749,Station GA-CEN-0749,GA,Central,21.4209,21.6329,2189.5,False,True
NA-SOU-0750,Station NA-SOU-0750,NA,South,-12.4687,43.3134,85.0,True,True
TN-NOR-0751,Station TN-NOR-0751,TN,North,-22.9567,20.9643,324.9,True,True
DZ-NOR-0752,Station DZ-NOR-0752,DZ,North,35.9236,-12.9187,1090.7,False,True
ZA-SOU-0753,Station ZA-SOU-0753,ZA,South,19.707,-14.1169,1754.2,False,True
DZ-NOR-0754,Station DZ-NOR-0754,DZ,North,15.1045,2.7377,1254.3,True,True
NA-SOU-0755,Station NA-SOU-0755,NA,South,6.7877,33.1614,2914.0,True,True
ET-EAS-0756,Station ET-EAS-0756,ET,East,16.6243,3.5525,81.6,False,True
TZ-EAS-0757,Station TZ-EAS-0757,TZ,East,-2.5598,-2.0807,2569.6,True,True
LY-NOR-0758,Station LY-NOR-0758,LY,North,8.3256,20.9718,1974.7,True,True
KE-EAS-0759,Station KE-EAS-0759,KE,East,25.7531,40.3002,374.1,False,True
KE-EAS-0760,Station KE-EAS-0760,KE,East,4.5336,0.3949,2923.2,False,True
TN-NOR-0761,Station TN-NOR-0761,TN,North,7.1907,14.3765,432.9,False,True
KE-EAS-0762,Station KE-EAS-0762,KE,East,19.9973,19.3907,2673.9,False,True
DZ-NOR-0763,Station DZ-NOR-0763,DZ,North,3.2538,44.6633,571.7,False,True
KE-EAS-0764,Station KE-EAS-0764,KE,East,28.5966,17.578,2362.7,False,True
MA-NOR-0765,Station MA-NOR-0765,MA,North,-19.6492,20.1428,2778.3,False,True
LY-NOR-0766,Station LY-NOR-0766,LY,North,-30.2964,16.2508,2426.6,False,True
TN-NOR-0767,Station TN-NOR-0767,TN,North,5.8391,26.772,2037.9,False,True
UG-EAS-0768,Station UG-EAS-0768,UG,East,1.9741,-12.009,957.2,False,True
SN-WES-0769,Station SN-WES-0769,SN,West,-17.2241,41.1832,639.9,True,True
DZ-NOR-0770,Station DZ-NOR-0770,DZ,North,28.9402,18.81,1639.2,True,True
NA-SOU-0771,Station NA-SOU-0771,NA,South,-12.0436,-11.6557,51.3,False,True
DZ-NOR-0772,Station DZ-NOR-0772,DZ,North,-8.4595,35.0838,2972.1,True,True
EG-NOR-0773,Station EG-NOR-0773,EG,North,-28.4602,45.1502,1144.6,False,True
MA-NOR-0774,Station MA-NOR-0774,MA,North,-21.5947,18.0637,1298.9,False,True
CI-WES-0775,Station CI-WES-0775,CI,West,18.2837,-13.0506,2968.4,True,True
DZ-NOR-0776,Station DZ-NOR-0776,DZ,North,-18.3594,48.11,2404.4,False,True
NA-SOU-0777,Station NA-SOU-0777,NA,South,29.2399,31.0958,1621.0,True,True
BW-SOU-0778,Station BW-SOU-0778,BW,South,-3.7344,3.8768,1861.1,True,True
NG-WES-0779,Station NG-WES-0779,NG,West,-0.9235,-12.6286,2349.3,True,True
BW-SOU-0780,Station BW-SOU-0780,BW,South,-12.5705,20.3618,1290.7,False,True
TZ-EAS-0781,Station TZ-EAS-0781,TZ,East,13.3798,33.6409,2140.5,False,True
BW-SOU-0782,Station BW-SOU-0782,BW,South,-19.4026,23.0794,467.4,True,True
DZ-NOR-0783,Station DZ-NOR-0783,DZ,North,-3.2519,42.2814,1543.9,True,True
ET-EAS-0784,Station ET-EAS-0784,ET,East,16.6553,25.0617,2007.6,True,True
CI-WES-0785,Station CI-WES-0785,CI,West,-4.4754,26.3289,2412.4,True,True
BW-SOU-0786,Station BW-SOU-0786,BW,South,-6.6092,10.572,1528.1,True,True
ET-EAS-0787,Station ET-EAS-0787,ET,East,4.3523,9.2383,2920.9,False,True
GA-CEN-0788,Station GA-CEN-0788,GA,Central,-29.1454,0.6829,1076.3,True,True
CM-CEN-0789,Station CM-CEN-0789,CM,Central,-34.5407,-0.0239,2279.7,False,True
UG-EAS-0790,Station UG-EAS-0790,UG,East,-12.8474,-3.9507,2288.1,False,True
CD-CEN-0791,Station CD-CEN-0791,CD,Central,35.0021,-10.0609,1235.4,False,True
NG-WES-0792,Station NG-WES-0792,NG,West,13.8713,-4.9896,1960.8,False,True
TN-NOR-0793,Station TN-NOR-0793,TN,North,10.2363,-0.0631,2871.6,True,True
GH-WES-0794,Station GH-WES-0794,GH,West,-16.2062,41.1362,538.0,True,True
KE-EAS-0795,Station KE-EAS-0795,KE,East,31.4978,-4.5884,2397.8,False,True
TZ-EAS-0796,Station TZ-EAS-0796,TZ,East,-10.7126,38.904,1781.9,True,True
DZ-NOR-0797,Station DZ-NOR-0797,DZ,North,19.9841,22.1678,796.9,False,True
CM-CEN-0798,Station CM-CEN-0798,CM,Central,-0.801,36.1438,1360.8,True,True
CF-CEN-0799,Station CF-CEN-0799,CF,Central,8.1541,-11.0106,1380.7,False,True
ZA-SOU-0800,Station ZA-SOU-0800,ZA,South,28.9734,24.4887,1610.9,False,True
GH-WES-0801,Station GH-WES-0801,GH,West,18.9204,14.4588,1797.0,False,True
CG-CEN-0802,Station CG-CEN-0802,CG,Central,-27.4617,3.4002,1882.4,False,True
CF-CEN-0803,Station CF-CEN-0803,CF,Central,-32.6037,4.0142,1385.3,True,True
BW-SOU-0804,Station BW-SOU-0804,BW,South,23.9324,47.2472,923.4,False,True
GH-WES-0805,Station GH-WES-0805,GH,West,-30.0593,42.304,460.6,True,True
CM-CEN-0806,Station CM-CEN-0806,CM,Central,34.1642,10.1181,2844.5,False,True
DZ-NOR-0807,Station DZ-NOR-0807,DZ,North,-30.8614,34.2588,2582.4,True,True
SO-EAS-0808,Station SO-EAS-0808,SO,East,32.9313,-2.922,1839.7,True,True
TN-NOR-0809,Station TN-NOR-0809,TN,North,-15.5307,50.1497,2041.6,False,True
GH-WES-0810,Station GH-WES-0810,GH,West,-20.6861,45.95,467.3,True,True
CD-CEN-0811,Station CD-CEN-0811,CD,Central,-33.6134,-15.1798,388.4,True,True
EG-NOR-0812,Station EG-NOR-0812,EG,North,-1.0626,46.2827,2432.8,True,True
CG-CEN-0813,Station CG-CEN-0813,CG,Central,11.0671,37.262,1491.4,False,True
NG-WES-0814,Station NG-WES-0814,NG,West,-30.4281,0.2676,382.5,True,True
LY-NOR-0815,Station LY-NOR-0815,LY,North,-15.1127,14.6373,61.2,True,True
MZ-SOU-0816,Station MZ-SOU-0816,MZ,South,31.5717,7.8731,2336.0,False,True
ET-EAS-0817,Station ET-EAS-0817,ET,East,-5.2303,22.542,1888.5,False,True
BW-SOU-0818,Station BW-SOU-0818,BW,South,-34.7444,29.4438,1400.8,False,True
CF-CEN-0819,Station CF-CEN-0819,CF,Central,28.1744,-11.5777,631.9,False,True
GH-WES-0820,Station GH-WES-0820,GH,West,-24.8028,35.9787,2176.2,False,True
NA-SOU-0821,Station NA-SOU-0821,NA,South,3.8303,-14.1733,549.7,True,True
LY-NOR-0822,Station LY-NOR-0822,LY,North,15.172,12.9131,882.5,False,True
KE-EAS-0823,Station KE-EAS-0823,KE,East,-26.3752,-2.1698,2878.9,True,True
ZW-SOU-0824,Station ZW-SOU-0824,ZW,South,9.6055,42.5229,774.3,True,True
SN-WES-0825,Station SN-WES-0825,SN,West,34.3607,43.1319,1697.5,False,True
TZ-EAS-0826,Station TZ-EAS-0826,TZ,East,-16.4411,17.1404,1310.9,True,True
CF-CEN-0827,Station CF-CEN-0827,CF,Central,-0.2562,17.8597,423.7,True,True
CD-CEN-0828,Station CD-CEN-0828,CD,Central,-10.5659,42.9224,1709.5,True,True
DZ-NOR-0829,Station DZ-NOR-0829,DZ,North,-7.2214,7.6491,1564.0,True,True
NG-WES-0830,Station NG-WES-0830,NG,West,6.5164,28.6285,2173.6,False,True
BW-SOU-0831,Station BW-SOU-0831,BW,South,-9.1736,-14.3284,2644.0,True,True
GA-CEN-0832,Station GA-CEN-0832,GA,Central,19.1253,35.2617,442.1,False,True
CG-CEN-0833,Station CG-CEN-0833,CG,Central,23.6273,36.4543,1066.2,False,True
UG-EAS-0834,Station UG-EAS-0834,UG,East,-12.8697,-9.6664,1545.7,True,True
CD-CEN-0835,Station CD-CEN-0835,CD,Central,13.7532,-5.7391,676.7,True,True
BW-SOU-0836,Station BW-SOU-0836,BW,South,28.2847,27.345,618.3,True,True
SO-EAS-0837,Station SO-EAS-0837,SO,East,25.3474,37.654,1826.0,False,True
TZ-EAS-0838,Station TZ-EAS-0838,TZ,East,15.9637,48.1326,1292.1,True,True
CG-CEN-0839,Station CG-CEN-0839,CG,Central,36.5976,16.105,2698.3,False,True
UG-EAS-0840,Station UG-EAS-0840,UG,East,21.4033,14.4162,2756.9,True,True
GA-CEN-0841,Station GA-CEN-0841,GA,Central,36.2911,26.6941,1140.7,False,True
ZW-SOU-0842,Station ZW-SOU-0842,ZW,South,32.897,30.7896,629.6,False,True
DZ-NOR-0843,Station DZ-NOR-0843,DZ,North,-26.7585,-3.1129,595.6,False,True
KE-EAS-0844,Station KE-EAS-0844,KE,East,-28.6551,42.6979,1037.9,True,True
BW-SOU-0845,Station BW-SOU-0845,BW,South,-23.8942,1.9975,2611.1,True,True
KE-EAS-0846,Station KE-EAS-0846,KE,East,34.7504,37.8279,2919.2,False,True
CD-CEN-0847,Station CD-CEN-0847,CD,Central,-22.8037,-12.7586,2144.6,True,True
SN-WES-0848,Station SN-WES-0848,SN,West,3.1053,-2.2018,301.5,False,True
GA-CEN-0849,Station GA-CEN-0849,GA,Central,24.1118,27.4771,2917.9,True,True
ZW-SOU-0850,Station ZW-SOU-0850,ZW,South,-15.5919,43.1396,2118.2,True,True
ML-WES-0851,Station ML-WES-0851,ML,West,-30.8548,17.4393,1469.0,True,True
KE-EAS-0852,Station KE-EAS-0852,KE,East,-14.9006,-9.8665,904.3,False,True
CF-CEN-0853,Station CF-CEN-0853,CF,Central,16.3027,37.4551,2627.0,False,True
EG-NOR-0854,Station EG-NOR-0854,EG,North,-15.1474,11.1846,1341.0,True,True
EG-NOR-0855,Station EG-NOR-0855,EG,North,2.9872,-4.8009,1751.5,True,True
KE-EAS-0856,Station KE-EAS-0856,KE,East,-22.1315,45.7777,2365.6,True,True
CD-CEN-0857,Station CD-CEN-0857,CD,Central,-14.1379,-15.6491,1080.0,False,True
DZ-NOR-0858,Station DZ-NOR-0858,DZ,North,31.8325,12.3533,2874.6,True,True
CG-CEN-0859,Station CG-CEN-0859,CG,Central,-15.0338,33.3238,1092.6,False,True
TZ-EAS-0860,Station TZ-EAS-0860,TZ,East,-34.78,-1.1587,441.8,False,True
MA-NOR-0861,Station MA-NOR-0861,MA,North,-5.9539,45.1147,431.8,True,True
NA-SOU-0862,Station NA-SOU-0862,NA,South,0.9325,10.0428,1350.8,True,True
KE-EAS-0863,Station KE-EAS-0863,KE,East,27.7169,49.9475,2920.4,False,True
EG-NOR-0864,Station EG-NOR-0864,EG,North,1.0376,37.6093,2234.4,True,True
LY-NOR-0865,Station LY-NOR-0865,LY,North,24.061,31.9758,1829.8,True,True
CM-CEN-0866,Station CM-CEN-0866,CM,Central,32.7261,44.9352,2620.0,True,True
ZW-SOU-0867,Station ZW-SOU-0867,ZW,South,8.5843,41.6808,1708.6,True,True
ET-EAS-0868,Station ET-EAS-0868,ET,East,-18.3434,17.0695,834.8,False,True
ET-EAS-0869,Station ET-EAS-0869,ET,East,24.4276,36.1656,2861.8,True,True
EG-NOR-0870,Station EG-NOR-0870,EG,North,29.6054,12.0409,718.1,True,True
LY-NOR-0871,Station LY-NOR-0871,LY,North,16.3986,9.8008,2864.6,False,True
SN-WES-0872,Station SN-WES-0872,SN,West,23.1921,-3.8442,464.4,True,True
ML-WES-0873,Station ML-WES-0873,ML,West,-13.5105,-2.6239,82.5,False,True
ML-WES-0874,Station ML-WES-0874,ML,West,19.4873,18.5962,1424.7,False,True
CG-CEN-0875,Station CG-CEN-0875,CG,Central,7.5934,45.589,2442.6,True,True
KE-EAS-0876,Station KE-EAS-0876,KE,East,6.7504,24.6532,2332.8,True,True
UG-EAS-0877,Station UG-EAS-0877,UG,East,8.4935,41.2681,2989.3,False,True
CI-WES-0878,Station CI-WES-0878,CI,West,-27.0929,37.4223,611.8,True,True
KE-EAS-0879,Station KE-EAS-0879,KE,East,-10.2976,32.8363,1339.9,False,True
NG-WES-0880,Station NG-WES-0880,NG,West,-10.2332,19.1962,2988.4,False,True
KE-EAS-0881,Station KE-EAS-0881,KE,East,10.4004,34.1035,2238.5,False,True
ZW-SOU-0882,Station ZW-SOU-0882,ZW,South,-17.7431,-3.2722,2124.0,True,True
EG-NOR-0883,Station EG-NOR-0883,EG,North,-11.3629,50.9383,1847.5,True,True
CG-CEN-0884,Station CG-CEN-0884,CG,Central,-31.2525,7.0868,1982.0,False,True
UG-EAS-0885,Station UG-EAS-0885,UG,East,4.6773,25.7029,751.3,False,True
TN-NOR-0886,Station TN-NOR-0886,TN,North,29.9092,2.0105,371.6,False,True
KE-EAS-0887,Station KE-EAS-0887,KE,East,-8.8319,33.6152,331.6,True,True
LY-NOR-0888,Station LY-NOR-0888,LY,North,-33.99,41.6205,2015.0,True,True
MA-NOR-0889,Station MA-NOR-0889,MA,North,25.3421,36.3277,2768.0,False,True
EG-NOR-0890,Station EG-NOR-0890,EG,North,31.8027,33.5866,942.7,True,True
KE-EAS-0891,Station KE-EAS-0891,KE,East,8.8415,48.3204,2529.1,True,True
MZ-SOU-0892,Station MZ-SOU-0892,MZ,South,10.6474,42.0221,813.0,False,True
GH-WES-0893,Station GH-WES-0893,GH,West,4.8672,33.2151,46.1,False,True
MA-NOR-0894,Station MA-NOR-0894,MA,North,-0.8758,7.6397,978.9,True,True
MZ-SOU-0895,Station MZ-SOU-0895,MZ,South,34.9755,10.0895,1216.6,True,True
ZA-SOU-0896,Station ZA-SOU-0896,ZA,South,-18.381,41.1902,2329.3,False,True
BW-SOU-0897,Station BW-SOU-0897,BW,South,-19.146,42.8488,2390.5,False,True
CG-CEN-0898,Station CG-CEN-0898,CG,Central,35.1194,3.0649,1153.5,False,True
SO-EAS-0899,Station SO-EAS-0899,SO,East,32.2615,5.6106,2827.1,False,True
CG-CEN-0900,Station CG-CEN-0900,CG,Central,13.9881,27.3704,2062.0,True,True
ET-EAS-0901,Station ET-EAS-0901,ET,East,33.5002,20.8205,1333.1,False,True
CG-CEN-0902,Station CG-CEN-0902,CG,Central,0.3096,25.8895,2862.8,False,True
ML-WES-0903,Station ML-WES-0903,ML,West,-31.8193,-4.8411,84.6,False,True
LY-NOR-0904,Station LY-NOR-0904,LY,North,-31.9091,41.3641,1263.6,True,True
ZW-SOU-0905,Station ZW-SOU-0905,ZW,South,-14.1089,-10.1022,1028.0,True,True
CG-CEN-0906,Station CG-CEN-0906,CG,Central,-29.3603,-2.2323,2413.1,True,True
DZ-NOR-0907,Station DZ-NOR-0907,DZ,North,4.6829,9.3523,256.0,True,True
ET-EAS-0908,Station ET-EAS-0908,ET,East,30.455,-13.2635,2129.0,True,True
SN-WES-0909,Station SN-WES-0909,SN,West,-4.9386,10.9679,2982.8,True,True
MA-NOR-0910,Station MA-NOR-0910,MA,North,21.1844,-15.8164,1914.2,False,True
NG-WES-0911,Station NG-WES-0911,NG,West,32.2921,38.6194,2311.0,False,True
GH-WES-0912,Station GH-WES-0912,GH,West,27.9514,26.1666,260.6,True,True
SN-WES-0913,Station SN-WES-0913,SN,West,-11.5631,48.6616,6.3,False,True
NG-WES-0914,Station NG-WES-0914,NG,West,17.0719,34.9316,1797.5,True,True
CD-CEN-0915,Station CD-CEN-0915,CD,Central,36.3891,9.1451,1082.4,False,True
DZ-NOR-0916,Station DZ-NOR-0916,DZ,North,-21.0559,21.9132,1874.7,False,True
ET-EAS-0917,Station ET-EAS-0917,ET,East,-24.8988,5.4809,543.3,True,True
TZ-EAS-0918,Station TZ-EAS-0918,TZ,East,36.0052,30.9816,2436.5,False,True
EG-NOR-0919,Station EG-NOR-0919,EG,North,26.6301,30.6542,1715.8,True,True
TN-NOR-0920,Station TN-NOR-0920,TN,North,-23.7215,23.0382,2533.6,True,True
KE-EAS-0921,Station KE-EAS-0921,KE,East,23.1826,-7.7741,743.9,False,True
SN-WES-0922,Station SN-WES-0922,SN,West,-5.4889,-3.2798,2509.5,True,True
NA-SOU-0923,Station NA-SOU-0923,NA,South,34.1775,40.4955,519.9,True,True
CM-CEN-0924,Station CM-CEN-0924,CM,Central,-32.8869,27.6987,1000.4,True,True
UG-EAS-0925,Station UG-EAS-0925,UG,East,22.1636,21.0272,2287.1,False,True
CM-CEN-0926,Station CM-CEN-0926,CM,Central,-29.7544,24.486,952.6,True,True
MZ-SOU-0927,Station MZ-SOU-0927,MZ,South,23.1793,-6.6725,2308.8,False,True
CF-CEN-0928,Station CF-CEN-0928,CF,Central,22.2188,4.2518,2958.4,False,True
TZ-EAS-0929,Station TZ-EAS-0929,TZ,East,-24.6487,23.4388,681.3,True,True
CM-CEN-0930,Station CM-CEN-0930,CM,Central,-22.3512,-6.1976,103.1,True,True
ML-WES-0931,Station ML-WES-0931,ML,West,-20.1485,7.7443,2898.9,True,True
BW-SOU-0932,Station BW-SOU-0932,BW,South,-34.3064,29.7043,2328.0,True,True
TZ-EAS-0933,Station TZ-EAS-0933,TZ,East,-30.3807,9.6231,1190.6,False,True
BW-SOU-0934,Station BW-SOU-0934,BW,South,7.5971,21.8588,311.3,False,True
GA-CEN-0935,Station GA-CEN-0935,GA,Central,-30.007,-3.2835,2744.0,True,True
GH-WES-0936,Station GH-WES-0936,GH,West,-34.8348,35.6417,1746.5,False,True
CF-CEN-0937,Station CF-CEN-0937,CF,Central,24.5586,41.4981,1737.7,False,True
CI-WES-0938,Station CI-WES-0938,CI,West,-25.161,5.0101,243.2,True,True
SN-WES-0939,Station SN-WES-0939,SN,West,16.291,-4.8569,2099.5,True,True
NG-WES-0940,Station NG-WES-0940,NG,West,-9.0366,41.9601,1043.7,True,True
MZ-SOU-0941,Station MZ-SOU-0941,MZ,South,27.677,45.2024,1266.0,True,True
LY-NOR-0942,Station LY-NOR-0942,LY,North,35.4102,3.16,2538.3,True,True
MA-NOR-0943,Station MA-NOR-0943,MA,North,32.6494,30.0347,2296.5,False,True
CI-WES-0944,Station CI-WES-0944,CI,West,-3.9137,46.5796,1005.0,True,True
SN-WES-0945,Station SN-WES-0945,SN,West,8.291,1.1656,955.5,False,True
ET-EAS-0946,Station ET-EAS-0946,ET,East,34.3809,23.5712,241.5,False,True
GH-WES-0947,Station GH-WES-0947,GH,West,20.0277,42.7607,764.0,False,True
DZ-NOR-0948,Station DZ-NOR-0948,DZ,North,-7.245,-15.5075,1273.2,True,True
SO-EAS-0949,Station SO-EAS-0949,SO,East,7.9864,30.1423,839.2,True,True
CF-CEN-0950,Station CF-CEN-0950,CF,Central,-24.8792,49.8898,575.9,True,True
SN-WES-0951,Station SN-WES-0951,SN,West,23.8483,-16.0296,1654.1,True,True
KE-EAS-0952,Station KE-EAS-0952,KE,East,-3.7771,39.0146,1137.6,False,True
DZ-NOR-0953,Station DZ-NOR-0953,DZ,North,36.7539,12.0675,1877.1,True,True
CI-WES-0954,Station CI-WES-0954,CI,West,-1.505,-14.1765,1208.4,True,True
CM-CEN-0955,Station CM-CEN-0955,CM,Central,-9.0524,11.2087,2493.1,True,True
EG-NOR-0956,Station EG-NOR-0956,EG,North,-14.0077,16.0707,482.4,True,True
ZW-SOU-0957,Station ZW-SOU-0957,ZW,South,30.2543,12.8653,1482.4,True,True
SN-WES-0958,Station SN-WES-0958,SN,West,-14.4483,23.2138,2782.5,True,True
UG-EAS-0959,Station UG-EAS-0959,UG,East,29.123,33.2002,146.2,False,True
KE-EAS-0960,Station KE-EAS-0960,KE,East,-8.2297,46.8031,684.1,True,True
MA-NOR-0961,Station MA-NOR-0961,MA,North,25.0514,-12.571,26.0,False,True
GA-CEN-0962,Station GA-CEN-0962,GA,Central,1.1773,37.8267,1905.1,False,True
SN-WES-0963,Station SN-WES-0963,SN,West,2.8761,29.7013,900.9,False,True
ET-EAS-0964,Station ET-EAS-0964,ET,East,1.9283,-11.0537,1821.8,True,True
NA-SOU-0965,Station NA-SOU-0965,NA,South,-32.7543,30.1185,284.8,True,True
SN-WES-0966,Station SN-WES-0966,SN,West,2.0251,23.4715,1169.1,False,True
MA-NOR-0967,Station MA-NOR-0967,MA,North,-33.0559,33.5453,29.8,False,True
TN-NOR-0968,Station TN-NOR-0968,TN,North,30.3496,40.3424,2726.0,False,True
CD-CEN-0969,Station CD-CEN-0969,CD,Central,16.8298,35.4272,2651.3,True,True
CM-CEN-0970,Station CM-CEN-0970,CM,Central,5.377,-11.9372,44.0,False,True
ZW-SOU-0971,Station ZW-SOU-0971,ZW,South,-19.4674,-6.0819,968.0,True,True
SN-WES-0972,Station SN-WES-0972,SN,West,30.442,-11.1144,2644.8,False,True
ML-WES-0973,Station ML-WES-0973,ML,West,-0.6305,25.5482,575.8,True,True
KE-EAS-0974,Station KE-EAS-0974,KE,East,-17.459,11.0137,1922.5,True,True
SO-EAS-0975,Station SO-EAS-0975,SO,East,-29.1339,31.5293,807.4,True,True
NG-WES-0976,Station NG-WES-0976,NG,West,-22.3974,13.3767,1011.2,True,True
ML-WES-0977,Station ML-WES-0977,ML,West,12.574,22.2855,1739.6,False,True
CI-WES-0978,Station CI-WES-0978,CI,West,-24.3045,46.8218,2859.7,True,True
GA-CEN-0979,Station GA-CEN-0979,GA,Central,-7.588,-13.5163,2172.2,True,True
LY-NOR-0980,Station LY-NOR-0980,LY,North,15.5593,8.7598,2066.7,True,True
EG-NOR-0981,Station EG-NOR-0981,EG,North,-28.0936,36.4551,2913.2,False,True
LY-NOR-0982,Station LY-NOR-0982,LY,North,-11.6953,13.655,2628.2,True,True
CI-WES-0983,Station CI-WES-0983,CI,West,-26.6363,33.2817,1502.0,False,True
EG-NOR-0984,Station EG-NOR-0984,EG,North,16.2177,9.4436,815.4,False,True
CI-WES-0985,Station CI-WES-0985,CI,West,30.8235,-15.1172,1601.9,True,True
ZA-SOU-0986,Station ZA-SOU-0986,ZA,South,5.9665,23.8345,1448.8,True,True
UG-EAS-0987,Station UG-EAS-0987,UG,East,-21.1672,28.4848,2886.9,True,True
NG-WES-0988,Station NG-WES-0988,NG,West,-7.3758,37.5395,2760.8,True,True
TN-NOR-0989,Station TN-NOR-0989,TN,North,-19.1462,31.3505,924.2,False,True
SO-EAS-0990,Station SO-EAS-0990,SO,East,17.3598,42.6314,887.9,False,True
ZW-SOU-0991,Station ZW-SOU-0991,ZW,South,18.0523,32.7817,1096.5,True,True
MZ-SOU-0992,Station MZ-SOU-0992,MZ,South,24.5894,-1.7285,2752.1,True,True
BW-SOU-0993,Station BW-SOU-0993,BW,South,21.7295,4.5363,2002.4,True,True
CD-CEN-0994,Station CD-CEN-0994,CD,Central,28.6742,32.8433,637.1,False,True
SN-WES-0995,Station SN-WES-0995,SN,West,-21.4927,33.1538,1429.1,True,True
TN-NOR-0996,Station TN-NOR-0996,TN,North,25.4739,-0.9046,1794.9,True,True
MZ-SOU-0997,Station MZ-SOU-0997,MZ,South,-26.1392,11.4882,2618.8,True,True
GA-CEN-0998,Station GA-CEN-0998,GA,Central,-27.5479,16.7743,1669.0,True,True
GA-CEN-0999,Station GA-CEN-0999,GA,Central,-27.2427,-11.1467,2447.2,True,True
ML-WES-1000,Station ML-WES-1000,ML,West,-21.0556,33.6019,1516.5,False,True
GH-WES-1001,Station GH-WES-1001,GH,West,30.5715,29.7279,370.4,True,True
GA-CEN-1002,Station GA-CEN-1002,GA,Central,-32.829,44.5651,666.3,True,True
GH-WES-1003,Station GH-WES-1003,GH,West,5.5894,39.5361,324.7,True,True
NG-WES-1004,Station NG-WES-1004,NG,West,26.6211,-3.0217,1823.0,False,True
NA-SOU-1005,Station NA-SOU-1005,NA,South,13.1861,17.8353,1660.6,False,True
DZ-NOR-1006,Station DZ-NOR-1006,DZ,North,5.3484,45.9561,2691.3,False,True
SO-EAS-1007,Station SO-EAS-1007,SO,East,34.5404,-13.8433,2255.9,True,True
TN-NOR-1008,Station TN-NOR-1008,TN,North,11.942,14.5659,1261.3,False,True
GA-CEN-1009,Station GA-CEN-1009,GA,Central,-15.803,-12.696,739.3,False,True
ZA-SOU-1010,Station ZA-SOU-1010,ZA,South,-30.3076,8.5593,586.4,True,True
CM-CEN-1011,Station CM-CEN-1011,CM,Central,5.5998,34.8497,1562.3,True,True
MZ-SOU-1012,Station MZ-SOU-1012,MZ,South,-33.0723,50.833,674.6,False,True
UG-EAS-1013,Station UG-EAS-1013,UG,East,17.224,37.6672,2445.6,True,True
ZW-SOU-1014,Station ZW-SOU-1014,ZW,South,30.4519,-12.123,2919.4,False,True
CF-CEN-1015,Station CF-CEN-1015,CF,Central,-28.0118,35.6613,427.2,True,True
MZ-SOU-1016,Station MZ-SOU-1016,MZ,South,-27.7264,-12.6339,2229.1,False,True
ET-EAS-1017,Station ET-EAS-1017,ET,East,11.5708,-10.2182,1671.3,True,True
NG-WES-1018,Station NG-WES-1018,NG,West,-34.7448,26.3012,95.7,False,True
NG-WES-1019,Station NG-WES-1019,NG,West,2.2817,20.0253,288.4,True,True
DZ-NOR-1020,Station DZ-NOR-1020,DZ,North,16.4965,17.9785,1026.4,True,True
ZW-SOU-1021,Station ZW-SOU-1021,ZW,South,10.2177,36.584,1148.6,True,True
TN-NOR-1022,Station TN-NOR-1022,TN,North,14.3959,37.4427,2937.8,True,True
MZ-SOU-1023,Station MZ-SOU-1023,MZ,South,9.6659,4.085,42.0,True,True
GH-WES-1024,Station GH-WES-1024,GH,West,-14.3591,7.6221,2355.7,True,True
KE-EAS-1025,Station KE-EAS-1025,KE,East,28.2972,25.2178,2324.2,False,True
KE-EAS-1026,Station KE-EAS-1026,KE,East,28.8886,11.9407,830.1,True,True
SN-WES-1027,Station SN-WES-1027,SN,West,4.6329,-8.1861,957.3,True,True
DZ-NOR-1028,Station DZ-NOR-1028,DZ,North,25.5453,36.866,1994.3,False,True
ET-EAS-1029,Station ET-EAS-1029,ET,East,1.3551,0.5493,2793.1,True,True
ZA-SOU-1030,Station ZA-SOU-1030,ZA,South,26.5302,24.9059,2337.7,False,True
CD-CEN-1031,Station CD-CEN-1031,CD,Central,-7.7317,-8.9618,1562.0,True,True
CD-CEN-1032,Station CD-CEN-1032,CD,Central,8.602,28.5288,1030.7,False,True
BW-SOU-1033,Station BW-SOU-1033,BW,South,-27.0566,9.0503,1711.4,False,True
UG-EAS-1034,Station UG-EAS-1034,UG,East,9.2392,-13.6384,21.0,True,True
GH-WES-1035,Station GH-WES-1035,GH,West,-17.2081,46.765,1930.4,False,True
UG-EAS-1036,Station UG-EAS-1036,UG,East,17.0887,42.9534,1033.0,False,True
CD-CEN-1037,Station CD-CEN-1037,CD,Central,-12.3797,-4.0379,74.7,False,True
SN-WES-1038,Station SN-WES-1038,SN,West,22.4411,38.9454,1861.2,False,True
DZ-NOR-1039,Station DZ-NOR-1039,DZ,North,-1.8748,46.4341,516.6,False,True
MZ-SOU-1040,Station MZ-SOU-1040,MZ,South,19.6245,13.1019,1605.8,True,True
EG-NOR-1041,Station EG-NOR-1041,EG,North,-34.6631,38.8725,828.0,True,True
CI-WES-1042,Station CI-WES-1042,CI,West,36.1198,-12.6825,2464.8,False,True
CM-CEN-1043,Station CM-CEN-1043,CM,Central,-1.9442,33.0299,2117.2,False,True
KE-EAS-1044,Station KE-EAS-1044,KE,East,-8.031,-16.7603,2260.8,True,True
CI-WES-1045,Station CI-WES-1045,CI,West,17.1229,38.7747,1214.9,False,True
CD-CEN-1046,Station CD-CEN-1046,CD,Central,36.7176,20.7508,809.1,False,True
TZ-EAS-1047,Station TZ-EAS-1047,TZ,East,14.9409,9.8368,1.2,False,True
NA-SOU-1048,Station NA-SOU-1048,NA,South,2.478,3.7503,2568.1,True,True
ZA-SOU-1049,Station ZA-SOU-1049,ZA,South,-33.7906,-6.2058,1342.7,False,True
CI-WES-1050,Station CI-WES-1050,CI,West,22.3076,7.2142,343.7,False,True
KE-EAS-1051,Station KE-EAS-1051,KE,East,-15.7031,42.8161,565.6,True,True
SN-WES-1052,Station SN-WES-1052,SN,West,2.4684,14.2054,839.0,False,True
ZW-SOU-1053,Station ZW-SOU-1053,ZW,South,-12.8322,6.2161,2622.9,False,True
CF-CEN-1054,Station CF-CEN-1054,CF,Central,19.1187,-0.01,1405.8,True,True
ZA-SOU-1055,Station ZA-SOU-1055,ZA,South,27.8973,15.7438,1981.4,True,True
BW-SOU-1056,Station BW-SOU-1056,BW,South,-27.7874,50.8166,2837.0,False,True
ZW-SOU-1057,Station ZW-SOU-1057,ZW,South,-15.0378,38.2554,1288.4,True,True
ML-WES-1058,Station ML-WES-1058,ML,West,-29.9107,25.7294,1253.5,False,True
SO-EAS-1059,Station SO-EAS-1059,SO,East,-9.3149,18.5003,553.3,False,True
BW-SOU-1060,Station BW-SOU-1060,BW,South,-33.5103,4.4652,888.0,True,True
EG-NOR-1061,Station EG-NOR-1061,EG,North,-14.2681,26.3711,688.5,False,True
SO-EAS-1062,Station SO-EAS-1062,SO,East,26.8255,1.496,2282.2,True,True
SN-WES-1063,Station SN-WES-1063,SN,West,34.4721,28.3166,2282.4,True,True
UG-EAS-1064,Station UG-EAS-1064,UG,East,-7.8777,17.3621,1825.0,False,True
MZ-SOU-1065,Station MZ-SOU-1065,MZ,South,-18.5088,15.5156,2795.0,False,True
CI-WES-1066,Station CI-WES-1066,CI,West,13.273,-3.7488,2115.4,False,True
SN-WES-1067,Station SN-WES-1067,SN,West,-32.3054,33.6123,461.1,False,True
NA-SOU-1068,Station NA-SOU-1068,NA,South,-1.119,29.8101,1764.0,True,True
SO-EAS-1069,Station SO-EAS-1069,SO,East,35.1117,47.6417,2007.4,False,True
SO-EAS-1070,Station SO-EAS-1070,SO,East,-1.8465,-13.2696,1452.1,False,True
MA-NOR-1071,Station MA-NOR-1071,MA,North,-21.9558,46.5698,1179.0,True,True
ML-WES-1072,Station ML-WES-1072,ML,West,21.7087,-11.2081,2737.3,True,True
UG-EAS-1073,Station UG-EAS-1073,UG,East,-26.5373,20.8911,1154.1,True,True
ZA-SOU-1074,Station ZA-SOU-1074,ZA,South,30.0018,39.9876,1743.2,False,True
GH-WES-1075,Station GH-WES-1075,GH,West,10.2803,35.4097,782.6,False,True
CM-CEN-1076,Station CM-CEN-1076,CM,Central,-26.1507,39.2065,2274.0,True,True
ML-WES-1077,Station ML-WES-1077,ML,West,-33.3076,14.6152,630.6,True,True
LY-NOR-1078,Station LY-NOR-1078,LY,North,-1.2074,21.401,1203.9,True,True
CG-CEN-1079,Station CG-CEN-1079,CG,Central,-0.5299,-3.09,2739.7,False,True
GA-CEN-1080,Station GA-CEN-1080,GA,Central,-18.5161,44.9593,1154.1,True,True
SN-WES-1081,Station SN-WES-1081,SN,West,7.5553,-13.9689,1551.2,False,True
TN-NOR-1082,Station TN-NOR-1082,TN,North,-27.524,34.831,2585.6,True,True
LY-NOR-1083,Station LY-NOR-1083,LY,North,28.4764,50.8316,1713.3,True,True
NA-SOU-1084,Station NA-SOU-1084,NA,South,-33.1239,32.1869,2987.6,True,True
LY-NOR-1085,Station LY-NOR-1085,LY,North,19.7331,49.4177,2810.8,True,True
MZ-SOU-1086,Station MZ-SOU-1086,MZ,South,-19.8547,38.9329,2587.1,False,True
ZA-SOU-1087,Station ZA-SOU-1087,ZA,South,-12.2131,22.64,2911.2,False,True
ZW-SOU-1088,Station ZW-SOU-1088,ZW,South,-12.7707,21.1769,2788.1,True,True
ML-WES-1089,Station ML-WES-1089,ML,West,-0.723,13.8664,2397.6,False,True
CM-CEN-1090,Station CM-CEN-1090,CM,Central,23.941,23.4871,1965.2,False,True
ZA-SOU-1091,Station ZA-SOU-1091,ZA,South,-6.9917,44.1165,2785.8,True,True
UG-EAS-1092,Station UG-EAS-1092,UG,East,-34.0665,0.3234,931.7,False,True
CG-CEN-1093,Station CG-CEN-1093,CG,Central,-6.9105,30.9586,2663.2,True,True
SO-EAS-1094,Station SO-EAS-1094,SO,East,-9.265,-7.0484,1527.9,False,True
TZ-EAS-1095,Station TZ-EAS-1095,TZ,East,26.663,12.4431,1135.3,False,True
CI-WES-1096,Station CI-WES-1096,CI,West,-26.4375,9.3317,1387.5,True,True
NA-SOU-1097,Station NA-SOU-1097,NA,South,-26.5613,21.9926,264.8,True,True
ET-EAS-1098,Station ET-EAS-1098,ET,East,9.9654,-15.1514,2668.7,True,True
SN-WES-1099,Station SN-WES-1099,SN,West,-21.3359,45.0899,128.9,True,True
SN-WES-1100,Station SN-WES-1100,SN,West,5.7516,-6.9925,1336.5,True,True
LY-NOR-1101,Station LY-NOR-1101,LY,North,-29.485,9.6402,1292.6,False,True
GA-CEN-1102,Station GA-CEN-1102,GA,Central,-29.1198,35.1927,36.9,True,True
CG-CEN-1103,Station CG-CEN-1103,CG,Central,32.8249,46.8562,975.7,True,True
TN-NOR-1104,Station TN-NOR-1104,TN,North,-2.747,38.1901,1967.2,True,True
ET-EAS-1105,Station ET-EAS-1105,ET,East,22.8572,-16.4068,2260.1,False,True
ZA-SOU-1106,Station ZA-SOU-1106,ZA,South,1.4911,19.8604,309.0,False,True
ZA-SOU-1107,Station ZA-SOU-1107,ZA,South,-27.0521,42.2048,846.3,True,True
GH-WES-1108,Station GH-WES-1108,GH,West,-32.4631,42.8458,2982.2,False,True
CI-WES-1109,Station CI-WES-1109,CI,West,-23.2153,-6.0628,2455.9,False,True
CG-CEN-1110,Station CG-CEN-1110,CG,Central,35.4051,10.3099,1688.8,False,True
LY-NOR-1111,Station LY-NOR-1111,LY,North,-26.8976,39.3028,69.6,True,True
EG-NOR-1112,Station EG-NOR-1112,EG,North,-1.6992,42.4649,1603.4,False,True
GA-CEN-1113,Station GA-CEN-1113,GA,Central,22.7377,46.5016,1238.3,True,True
NG-WES-1114,Station NG-WES-1114,NG,West,6.6972,0.5974,1301.5,False,True
GA-CEN-1115,Station GA-CEN-1115,GA,Central,22.1562,9.8032,1977.4,True,True
MA-NOR-1116,Station MA-NOR-1116,MA,North,-20.2826,16.1888,2882.7,True,True
TZ-EAS-1117,Station TZ-EAS-1117,TZ,East,30.9608,4.2462,1474.4,False,True
CF-CEN-1118,Station CF-CEN-1118,CF,Central,22.7236,-15.3169,2540.4,False,True
NA-SOU-1119,Station NA-SOU-1119,NA,South,35.5671,-1.2567,2510.0,False,True
EG-NOR-1120,Station EG-NOR-1120,EG,North,-6.3601,-4.9381,604.1,False,True
TN-NOR-1121,Station TN-NOR-1121,TN,North,7.9135,24.8511,69.0,True,True
ZA-SOU-1122,Station ZA-SOU-1122,ZA,South,5.7296,49.4458,2856.3,False,True
TZ-EAS-1123,Station TZ-EAS-1123,TZ,East,-19.0949,29.6479,2547.9,True,True
CD-CEN-1124,Station CD-CEN-1124,CD,Central,2.1108,28.1347,175.9,False,True
CD-CEN-1125,Station CD-CEN-1125,CD,Central,7.8067,27.4467,1374.0,True,True
SO-EAS-1126,Station SO-EAS-1126,SO,East,16.4258,-2.7844,393.1,False,True
CF-CEN-1127,Station CF-CEN-1127,CF,Central,-33.6936,41.6269,1918.9,False,True
ZW-SOU-1128,Station ZW-SOU-1128,ZW,South,-16.1205,10.0206,2463.5,False,True
NG-WES-1129,Station NG-WES-1129,NG,West,0.6467,-10.4527,1626.8,True,True
CD-CEN-1130,Station CD-CEN-1130,CD,Central,33.3904,17.7611,2762.1,True,True
TN-NOR-1131,Station TN-NOR-1131,TN,North,17.3272,-0.4356,2775.2,True,True
EG-NOR-1132,Station EG-NOR-1132,EG,North,-4.9883,27.9299,100.2,False,True
EG-NOR-1133,Station EG-NOR-1133,EG,North,-3.5678,20.2204,331.5,False,True
GH-WES-1134,Station GH-WES-1134,GH,West,8.72,32.0752,362.0,False,True
CD-CEN-1135,Station CD-CEN-1135,CD,Central,29.5589,-11.4253,695.6,False,True
SN-WES-1136,Station SN-WES-1136,SN,West,23.1597,50.2812,1217.1,True,True
MZ-SOU-1137,Station MZ-SOU-1137,MZ,South,15.3206,-8.8174,2902.9,True,True
ZW-SOU-1138,Station ZW-SOU-1138,ZW,South,-29.3247,6.7975,775.1,False,True
GH-WES-1139,Station GH-WES-1139,GH,West,-1.566,24.8183,133.4,False,True
TZ-EAS-1140,Station TZ-EAS-1140,TZ,East,4.9087,23.4761,1478.7,True,True
UG-EAS-1141,Station UG-EAS-1141,UG,East,12.2104,45.3017,42.7,False,True
GA-CEN-1142,Station GA-CEN-1142,GA,Central,-27.8308,12.7005,2035.4,False,True
LY-NOR-1143,Station LY-NOR-1143,LY,North,-28.4302,-9.1774,2717.2,False,True
GA-CEN-1144,Station GA-CEN-1144,GA,Central,21.666,37.2909,2209.7,False,True
MA-NOR-1145,Station MA-NOR-1145,MA,North,25.3159,-7.9238,1955.5,False,True
NG-WES-1146,Station NG-WES-1146,NG,West,31.291,36.0209,272.6,False,True
LY-NOR-1147,Station LY-NOR-1147,LY,North,-22.7453,25.9125,655.3,True,True
GH-WES-1148,Station GH-WES-1148,GH,West,-0.7037,21.2422,331.5,True,True
BW-SOU-1149,Station BW-SOU-1149,BW,South,3.9527,0.3287,1467.2,False,True
GH-WES-1150,Station GH-WES-1150,GH,West,-29.4132,29.455,219.0,False,True
GH-WES-1151,Station GH-WES-1151,GH,West,14.4447,50.7597,673.9,False,True
SO-EAS-1152,Station SO-EAS-1152,SO,East,32.957,44.0997,1321.9,False,True
CM-CEN-1153,Station CM-CEN-1153,CM,Central,29.0491,-13.4292,1331.6,True,True
GH-WES-1154,Station GH-WES-1154,GH,West,25.1985,-16.5073,2103.3,True,True
ET-EAS-1155,Station ET-EAS-1155,ET,East,20.5368,5.8437,1500.2,True,True
ZW-SOU-1156,Station ZW-SOU-1156,ZW,South,-19.6538,43.3419,2063.9,True,True
CI-WES-1157,Station CI-WES-1157,CI,West,2.196,-16.821,30.0,True,True
NG-WES-1158,Station NG-WES-1158,NG,West,-34.8967,25.5518,420.3,False,True
SN-WES-1159,Station SN-WES-1159,SN,West,26.9561,30.95,1796.1,True,True
CF-CEN-1160,Station CF-CEN-1160,CF,Central,13.0608,-0.4036,965.6,False,True
MA-NOR-1161,Station MA-NOR-1161,MA,North,26.335,28.4541,352.6,True,True
SN-WES-1162,Station SN-WES-1162,SN,West,28.5938,24.1807,2123.8,True,True
CG-CEN-1163,Station CG-CEN-1163,CG,Central,9.077,-2.6022,305.3,False,True
TZ-EAS-1164,Station TZ-EAS-1164,TZ,East,-23.6716,-7.3534,2061.2,True,True
ZW-SOU-1165,Station ZW-SOU-1165,ZW,South,-18.5768,15.0266,931.1,True,True
GA-CEN-1166,Station GA-CEN-1166,GA,Central,9.2586,2.0217,2626.3,False,True
MA-NOR-1167,Station MA-NOR-1167,MA,North,-26.6022,37.3665,267.7,True,True
ET-EAS-1168,Station ET-EAS-1168,ET,East,33.3147,-2.6605,1634.6,True,True
CG-CEN-1169,Station CG-CEN-1169,CG,Central,-16.6838,42.1308,1129.3,False,True
GA-CEN-1170,Station GA-CEN-1170,GA,Central,34.2967,47.739,1587.6,False,True
CD-CEN-1171,Station CD-CEN-1171,CD,Central,18.2137,19.6859,1181.8,False,True
CF-CEN-1172,Station CF-CEN-1172,CF,Central,7.9318,10.9411,68.2,True,True
CI-WES-1173,Station CI-WES-1173,CI,West,-32.9439,-14.3787,396.9,False,True
SN-WES-1174,Station SN-WES-1174,SN,West,-16.3678,-1.4545,1492.4,False,True
LY-NOR-1175,Station LY-NOR-1175,LY,North,9.056,31.8219,1243.9,False,True
UG-EAS-1176,Station UG-EAS-1176,UG,East,17.1584,20.2153,1392.9,True,True
BW-SOU-1177,Station BW-SOU-1177,BW,South,3.5548,-10.6989,1797.1,True,True
NA-SOU-1178,Station NA-SOU-1178,NA,South,-19.4039,43.5908,624.0,True,True
CI-WES-1179,Station CI-WES-1179,CI,West,20.3291,-14.9487,862.6,False,True
SO-EAS-1180,Station SO-EAS-1180,SO,East,-4.0501,16.8889,2468.6,False,True
CI-WES-1181,Station CI-WES-1181,CI,West,-34.7544,21.2695,1310.0,True,True
CM-CEN-1182,Station CM-CEN-1182,CM,Central,-34.116,9.3959,539.4,True,True
KE-EAS-1183,Station KE-EAS-1183,KE,East,-15.1917,43.3343,404.1,True,True
SN-WES-1184,Station SN-WES-1184,SN,West,6.2166,21.3167,2320.9,True,True
GA-CEN-1185,Station GA-CEN-1185,GA,Central,18.5233,-3.5912,1254.0,True,True
TZ-EAS-1186,Station TZ-EAS-1186,TZ,East,31.6749,27.7556,1419.2,True,True
NA-SOU-1187,Station NA-SOU-1187,NA,South,29.3696,49.8144,456.9,True,True
KE-EAS-1188,Station KE-EAS-1188,KE,East,-15.1723,13.2164,1872.5,True,True
MZ-SOU-1189,Station MZ-SOU-1189,MZ,South,3.9404,23.2953,660.3,False,True
LY-NOR-1190,Station LY-NOR-1190,LY,North,-30.5009,13.3539,1590.7,True,True
UG-EAS-1191,Station UG-EAS-1191,UG,East,-11.6106,26.3725,2243.6,False,True
MA-NOR-1192,Station MA-NOR-1192,MA,North,-30.6123,-13.2981,27.6,True,True
NG-WES-1193,Station NG-WES-1193,NG,West,34.4363,7.3638,749.6,False,True
MA-NOR-1194,Station MA-NOR-1194,MA,North,7.0058,33.6655,2629.5,False,True
CM-CEN-1195,Station CM-CEN-1195,CM,Central,-16.4083,-4.9517,1510.3,False,True
NG-WES-1196,Station NG-WES-1196,NG,West,34.7789,32.5007,2843.7,True,True
ZA-SOU-1197,Station ZA-SOU-1197,ZA,South,-25.3174,45.6373,1195.9,False,True
DZ-NOR-1198,Station DZ-NOR-1198,DZ,North,-21.3358,42.3699,1562.1,False,True
GA-CEN-1199,Station GA-CEN-1199,GA,Central,4.3446,-16.7465,2368.7,True,True
ET-EAS-1200,Station ET-EAS-1200,ET,East,-22.7341,17.9074,2391.2,True,True
CG-CEN-1201,Station CG-CEN-1201,CG,Central,-24.8446,12.0933,1122.6,False,True
CG-CEN-1202,Station CG-CEN-1202,CG,Central,5.5695,44.2785,2152.1,True,True
BW-SOU-1203,Station BW-SOU-1203,BW,South,25.5888,17.5134,1718.1,True,True
DZ-NOR-1204,Station DZ-NOR-1204,DZ,North,-13.8608,27.0874,1475.5,False,True
ET-EAS-1205,Station ET-EAS-1205,ET,East,1.8371,-13.7748,76.5,True,True
UG-EAS-1206,Station UG-EAS-1206,UG,East,28.3926,16.9904,424.9,True,True
TZ-EAS-1207,Station TZ-EAS-1207,TZ,East,21.9797,37.2092,1496.4,False,True
SN-WES-1208,Station SN-WES-1208,SN,West,-17.7216,16.384,1756.1,True,True
GH-WES-1209,Station GH-WES-1209,GH,West,-22.0506,36.236,548.2,False,True
CM-CEN-1210,Station CM-CEN-1210,CM,Central,22.8459,-11.6694,1026.5,True,True
SO-EAS-1211,Station SO-EAS-1211,SO,East,33.2147,18.0682,2173.6,False,True
BW-SOU-1212,Station BW-SOU-1212,BW,South,23.349,-0.1721,1667.7,False,True
TN-NOR-1213,Station TN-NOR-1213,TN,North,3.4258,28.2932,424.3,True,True
DZ-NOR-1214,Station DZ-NOR-1214,DZ,North,33.1739,29.6747,2376.1,True,True
MA-NOR-1215,Station MA-NOR-1215,MA,North,35.0957,10.1839,1651.8,False,True
CM-CEN-1216,Station CM-CEN-1216,CM,Central,-26.8825,39.5361,1371.4,True,True
NG-WES-1217,Station NG-WES-1217,NG,West,9.5928,14.1461,1851.7,True,True
SN-WES-1218,Station SN-WES-1218,SN,West,-18.0203,13.0612,1985.7,False,True
GA-CEN-1219,Station GA-CEN-1219,GA,Central,-5.5991,33.9487,2906.1,False,True
MZ-SOU-1220,Station MZ-SOU-1220,MZ,South,-27.9812,-12.308,1771.3,False,True
LY-NOR-1221,Station LY-NOR-1221,LY,North,4.1321,33.3648,2658.0,True,True
NG-WES-1222,Station NG-WES-1222,NG,West,11.1821,17.9018,2474.1,True,True
TN-NOR-1223,Station TN-NOR-1223,TN,North,-25.0382,30.4754,862.0,False,True
ZA-SOU-1224,Station ZA-SOU-1224,ZA,South,-25.8124,35.8096,662.1,True,True
GA-CEN-1225,Station GA-CEN-1225,GA,Central,11.3514,18.1206,2466.5,False,True
UG-EAS-1226,Station UG-EAS-1226,UG,East,34.6323,5.8452,820.1,False,True
TN-NOR-1227,Station TN-NOR-1227,TN,North,-11.1083,-12.4418,310.4,False,True
NA-SOU-1228,Station NA-SOU-1228,NA,South,36.3096,-13.8539,1513.1,False,True
MA-NOR-1229,Station MA-NOR-1229,MA,North,-7.3304,26.0071,1766.8,True,True
ML-WES-1230,Station ML-WES-1230,ML,West,16.8758,18.9018,1967.8,False,True
CF-CEN-1231,Station CF-CEN-1231,CF,Central,1.6413,-12.7281,1446.7,False,True
GH-WES-1232,Station GH-WES-1232,GH,West,1.3102,44.4309,2869.4,True,True
EG-NOR-1233,Station EG-NOR-1233,EG,North,-32.5569,-11.6369,2465.1,True,True
KE-EAS-1234,Station KE-EAS-1234,KE,East,-12.7483,40.359,2449.9,False,True
LY-NOR-1235,Station LY-NOR-1235,LY,North,-14.2337,13.4349,1417.8,False,True
MZ-SOU-1236,Station MZ-SOU-1236,MZ,South,-31.0447,15.6241,2632.8,True,True
GA-CEN-1237,Station GA-CEN-1237,GA,Central,22.4686,49.7368,1986.1,False,True
BW-SOU-1238,Station BW-SOU-1238,BW,South,-6.2676,40.0403,2245.9,False,True
BW-SOU-1239,Station BW-SOU-1239,BW,South,-30.0319,0.4523,561.3,False,True
CM-CEN-1240,Station CM-CEN-1240,CM,Central,5.2393,19.1241,2401.6,False,True
MA-NOR-1241,Station MA-NOR-1241,MA,North,26.5729,-2.4213,1063.0,True,True
CF-CEN-1242,Station CF-CEN-1242,CF,Central,-14.8936,5.3671,2208.9,False,True
CM-CEN-1243,Station CM-CEN-1243,CM,Central,2.4116,26.2734,206.7,True,True
ML-WES-1244,Station ML-WES-1244,ML,West,-12.9916,30.6315,1302.8,True,True
MA-NOR-1245,Station MA-NOR-1245,MA,North,2.6531,49.0839,1402.6,True,True
TZ-EAS-1246,Station TZ-EAS-1246,TZ,East,-28.4049,16.7181,2575.9,False,True
